{
  "type": "FeatureCollection",
  "features": [
    {"type":"Feature","id":"place:country:US","geometry":{"type":"Point","coordinates":[-77.04,38.9]},"properties":{"id":"place:country:US","name":"United States","altNames":["USA","United States of America","America"],"kind":"country","countryCode":"US","importance":0.9,"capital":"Washington, D.C.","bounds":[-179.15,18.9,-66.95,71.4]}},
    {"type":"Feature","id":"place:country:CA","geometry":{"type":"Point","coordinates":[-75.7,45.42]},"properties":{"id":"place:country:CA","name":"Canada","altNames":[],"kind":"country","countryCode":"CA","importance":0.9,"capital":"Ottawa","bounds":[-141,41.7,-52.6,83.1]}},
    {"type":"Feature","id":"place:country:MX","geometry":{"type":"Point","coordinates":[-99.13,19.43]},"properties":{"id":"place:country:MX","name":"Mexico","altNames":["México"],"kind":"country","countryCode":"MX","importance":0.9,"capital":"Mexico City","bounds":[-118.4,14.5,-86.7,32.7]}},
    {"type":"Feature","id":"place:country:BR","geometry":{"type":"Point","coordinates":[-47.88,-15.79]},"properties":{"id":"place:country:BR","name":"Brazil","altNames":["Brasil"],"kind":"country","countryCode":"BR","importance":0.9,"capital":"Brasília","bounds":[-73.9,-33.8,-34.8,5.3]}},
    {"type":"Feature","id":"place:country:AR","geometry":{"type":"Point","coordinates":[-58.38,-34.6]},"properties":{"id":"place:country:AR","name":"Argentina","altNames":[],"kind":"country","countryCode":"AR","importance":0.9,"capital":"Buenos Aires","bounds":[-73.6,-55.1,-53.6,-21.8]}},
    {"type":"Feature","id":"place:country:CL","geometry":{"type":"Point","coordinates":[-70.67,-33.45]},"properties":{"id":"place:country:CL","name":"Chile","altNames":[],"kind":"country","countryCode":"CL","importance":0.9,"capital":"Santiago","bounds":[-75.6,-55.9,-66.4,-17.5]}},
    {"type":"Feature","id":"place:country:CO","geometry":{"type":"Point","coordinates":[-74.07,4.71]},"properties":{"id":"place:country:CO","name":"Colombia","altNames":[],"kind":"country","countryCode":"CO","importance":0.9,"capital":"Bogotá","bounds":[-79,-4.2,-66.9,12.5]}},
    {"type":"Feature","id":"place:country:PE","geometry":{"type":"Point","coordinates":[-77.04,-12.05]},"properties":{"id":"place:country:PE","name":"Peru","altNames":["Perú"],"kind":"country","countryCode":"PE","importance":0.9,"capital":"Lima","bounds":[-81.3,-18.4,-68.7,0]}},
    {"type":"Feature","id":"place:country:GB","geometry":{"type":"Point","coordinates":[-0.13,51.51]},"properties":{"id":"place:country:GB","name":"United Kingdom","altNames":["UK","Great Britain","Britain"],"kind":"country","countryCode":"GB","importance":0.9,"capital":"London","bounds":[-8.2,49.9,1.8,60.9]}},
    {"type":"Feature","id":"place:country:IE","geometry":{"type":"Point","coordinates":[-6.26,53.35]},"properties":{"id":"place:country:IE","name":"Ireland","altNames":["Éire"],"kind":"country","countryCode":"IE","importance":0.9,"capital":"Dublin","bounds":[-10.5,51.4,-6,55.4]}},
    {"type":"Feature","id":"place:country:FR","geometry":{"type":"Point","coordinates":[2.35,48.86]},"properties":{"id":"place:country:FR","name":"France","altNames":[],"kind":"country","countryCode":"FR","importance":0.9,"capital":"Paris","bounds":[-5.1,41.3,9.6,51.1]}},
    {"type":"Feature","id":"place:country:DE","geometry":{"type":"Point","coordinates":[13.41,52.52]},"properties":{"id":"place:country:DE","name":"Germany","altNames":["Deutschland"],"kind":"country","countryCode":"DE","importance":0.9,"capital":"Berlin","bounds":[5.9,47.3,15,55.1]}},
    {"type":"Feature","id":"place:country:ES","geometry":{"type":"Point","coordinates":[-3.7,40.42]},"properties":{"id":"place:country:ES","name":"Spain","altNames":["España"],"kind":"country","countryCode":"ES","importance":0.9,"capital":"Madrid","bounds":[-9.3,36,3.3,43.8]}},
    {"type":"Feature","id":"place:country:PT","geometry":{"type":"Point","coordinates":[-9.14,38.72]},"properties":{"id":"place:country:PT","name":"Portugal","altNames":[],"kind":"country","countryCode":"PT","importance":0.9,"capital":"Lisbon","bounds":[-9.5,36.9,-6.2,42.2]}},
    {"type":"Feature","id":"place:country:IT","geometry":{"type":"Point","coordinates":[12.5,41.9]},"properties":{"id":"place:country:IT","name":"Italy","altNames":["Italia"],"kind":"country","countryCode":"IT","importance":0.9,"capital":"Rome","bounds":[6.6,36.6,18.5,47.1]}},
    {"type":"Feature","id":"place:country:NL","geometry":{"type":"Point","coordinates":[4.9,52.37]},"properties":{"id":"place:country:NL","name":"Netherlands","altNames":["Holland","Nederland"],"kind":"country","countryCode":"NL","importance":0.9,"capital":"Amsterdam","bounds":[3.4,50.8,7.2,53.6]}},
    {"type":"Feature","id":"place:country:BE","geometry":{"type":"Point","coordinates":[4.35,50.85]},"properties":{"id":"place:country:BE","name":"Belgium","altNames":[],"kind":"country","countryCode":"BE","importance":0.9,"capital":"Brussels","bounds":[2.5,49.5,6.4,51.5]}},
    {"type":"Feature","id":"place:country:CH","geometry":{"type":"Point","coordinates":[7.45,46.95]},"properties":{"id":"place:country:CH","name":"Switzerland","altNames":["Schweiz","Suisse"],"kind":"country","countryCode":"CH","importance":0.9,"capital":"Bern","bounds":[5.9,45.8,10.5,47.8]}},
    {"type":"Feature","id":"place:country:AT","geometry":{"type":"Point","coordinates":[16.37,48.21]},"properties":{"id":"place:country:AT","name":"Austria","altNames":["Österreich"],"kind":"country","countryCode":"AT","importance":0.9,"capital":"Vienna","bounds":[9.5,46.4,17.2,49]}},
    {"type":"Feature","id":"place:country:SE","geometry":{"type":"Point","coordinates":[18.07,59.33]},"properties":{"id":"place:country:SE","name":"Sweden","altNames":["Sverige"],"kind":"country","countryCode":"SE","importance":0.9,"capital":"Stockholm","bounds":[11,55.3,24.2,69.1]}},
    {"type":"Feature","id":"place:country:NO","geometry":{"type":"Point","coordinates":[10.75,59.91]},"properties":{"id":"place:country:NO","name":"Norway","altNames":["Norge"],"kind":"country","countryCode":"NO","importance":0.9,"capital":"Oslo","bounds":[4.6,57.9,31.1,71.2]}},
    {"type":"Feature","id":"place:country:DK","geometry":{"type":"Point","coordinates":[12.57,55.68]},"properties":{"id":"place:country:DK","name":"Denmark","altNames":["Danmark"],"kind":"country","countryCode":"DK","importance":0.9,"capital":"Copenhagen","bounds":[8.1,54.6,15.2,57.8]}},
    {"type":"Feature","id":"place:country:FI","geometry":{"type":"Point","coordinates":[24.94,60.17]},"properties":{"id":"place:country:FI","name":"Finland","altNames":["Suomi"],"kind":"country","countryCode":"FI","importance":0.9,"capital":"Helsinki","bounds":[19.1,59.8,31.6,70.1]}},
    {"type":"Feature","id":"place:country:PL","geometry":{"type":"Point","coordinates":[21.01,52.23]},"properties":{"id":"place:country:PL","name":"Poland","altNames":["Polska"],"kind":"country","countryCode":"PL","importance":0.9,"capital":"Warsaw","bounds":[14.1,49,24.2,54.8]}},
    {"type":"Feature","id":"place:country:CZ","geometry":{"type":"Point","coordinates":[14.44,50.08]},"properties":{"id":"place:country:CZ","name":"Czechia","altNames":["Czech Republic"],"kind":"country","countryCode":"CZ","importance":0.9,"capital":"Prague","bounds":[12.1,48.6,18.9,51.1]}},
    {"type":"Feature","id":"place:country:GR","geometry":{"type":"Point","coordinates":[23.73,37.98]},"properties":{"id":"place:country:GR","name":"Greece","altNames":["Hellas"],"kind":"country","countryCode":"GR","importance":0.9,"capital":"Athens","bounds":[19.4,34.8,29.6,41.8]}},
    {"type":"Feature","id":"place:country:TR","geometry":{"type":"Point","coordinates":[32.87,39.93]},"properties":{"id":"place:country:TR","name":"Turkey","altNames":["Türkiye"],"kind":"country","countryCode":"TR","importance":0.9,"capital":"Ankara","bounds":[25.7,35.8,44.8,42.1]}},
    {"type":"Feature","id":"place:country:UA","geometry":{"type":"Point","coordinates":[30.52,50.45]},"properties":{"id":"place:country:UA","name":"Ukraine","altNames":[],"kind":"country","countryCode":"UA","importance":0.9,"capital":"Kyiv","bounds":[22.1,44.4,40.2,52.4]}},
    {"type":"Feature","id":"place:country:RU","geometry":{"type":"Point","coordinates":[37.62,55.76]},"properties":{"id":"place:country:RU","name":"Russia","altNames":["Russian Federation"],"kind":"country","countryCode":"RU","importance":0.9,"capital":"Moscow","bounds":[19.6,41.2,180,81.9]}},
    {"type":"Feature","id":"place:country:EG","geometry":{"type":"Point","coordinates":[31.24,30.04]},"properties":{"id":"place:country:EG","name":"Egypt","altNames":[],"kind":"country","countryCode":"EG","importance":0.9,"capital":"Cairo","bounds":[24.7,22,36.9,31.7]}},
    {"type":"Feature","id":"place:country:ZA","geometry":{"type":"Point","coordinates":[28.19,-25.75]},"properties":{"id":"place:country:ZA","name":"South Africa","altNames":[],"kind":"country","countryCode":"ZA","importance":0.9,"capital":"Pretoria","bounds":[16.5,-34.8,32.9,-22.1]}},
    {"type":"Feature","id":"place:country:NG","geometry":{"type":"Point","coordinates":[7.49,9.06]},"properties":{"id":"place:country:NG","name":"Nigeria","altNames":[],"kind":"country","countryCode":"NG","importance":0.9,"capital":"Abuja","bounds":[2.7,4.3,14.7,13.9]}},
    {"type":"Feature","id":"place:country:KE","geometry":{"type":"Point","coordinates":[36.82,-1.29]},"properties":{"id":"place:country:KE","name":"Kenya","altNames":[],"kind":"country","countryCode":"KE","importance":0.9,"capital":"Nairobi","bounds":[33.9,-4.7,41.9,5]}},
    {"type":"Feature","id":"place:country:ET","geometry":{"type":"Point","coordinates":[38.74,9.03]},"properties":{"id":"place:country:ET","name":"Ethiopia","altNames":[],"kind":"country","countryCode":"ET","importance":0.9,"capital":"Addis Ababa","bounds":[33,3.4,48,14.9]}},
    {"type":"Feature","id":"place:country:MA","geometry":{"type":"Point","coordinates":[-6.84,34.02]},"properties":{"id":"place:country:MA","name":"Morocco","altNames":[],"kind":"country","countryCode":"MA","importance":0.9,"capital":"Rabat","bounds":[-13.2,27.7,-1,35.9]}},
    {"type":"Feature","id":"place:country:SA","geometry":{"type":"Point","coordinates":[46.72,24.69]},"properties":{"id":"place:country:SA","name":"Saudi Arabia","altNames":[],"kind":"country","countryCode":"SA","importance":0.9,"capital":"Riyadh","bounds":[34.5,16.4,55.7,32.2]}},
    {"type":"Feature","id":"place:country:AE","geometry":{"type":"Point","coordinates":[54.38,24.45]},"properties":{"id":"place:country:AE","name":"United Arab Emirates","altNames":["UAE"],"kind":"country","countryCode":"AE","importance":0.9,"capital":"Abu Dhabi","bounds":[51.6,22.6,56.4,26.1]}},
    {"type":"Feature","id":"place:country:IL","geometry":{"type":"Point","coordinates":[35.22,31.77]},"properties":{"id":"place:country:IL","name":"Israel","altNames":[],"kind":"country","countryCode":"IL","importance":0.9,"capital":"Jerusalem","bounds":[34.3,29.5,35.9,33.3]}},
    {"type":"Feature","id":"place:country:IR","geometry":{"type":"Point","coordinates":[51.39,35.69]},"properties":{"id":"place:country:IR","name":"Iran","altNames":[],"kind":"country","countryCode":"IR","importance":0.9,"capital":"Tehran","bounds":[44,25.1,63.3,39.8]}},
    {"type":"Feature","id":"place:country:IN","geometry":{"type":"Point","coordinates":[77.21,28.61]},"properties":{"id":"place:country:IN","name":"India","altNames":["Bharat"],"kind":"country","countryCode":"IN","importance":0.9,"capital":"New Delhi","bounds":[68.2,6.7,97.4,35.5]}},
    {"type":"Feature","id":"place:country:PK","geometry":{"type":"Point","coordinates":[73.04,33.69]},"properties":{"id":"place:country:PK","name":"Pakistan","altNames":[],"kind":"country","countryCode":"PK","importance":0.9,"capital":"Islamabad","bounds":[60.9,23.7,77.8,37.1]}},
    {"type":"Feature","id":"place:country:CN","geometry":{"type":"Point","coordinates":[116.41,39.9]},"properties":{"id":"place:country:CN","name":"China","altNames":["People's Republic of China","PRC"],"kind":"country","countryCode":"CN","importance":0.9,"capital":"Beijing","bounds":[73.5,18.2,134.8,53.6]}},
    {"type":"Feature","id":"place:country:JP","geometry":{"type":"Point","coordinates":[139.69,35.68]},"properties":{"id":"place:country:JP","name":"Japan","altNames":["Nippon","Nihon"],"kind":"country","countryCode":"JP","importance":0.9,"capital":"Tokyo","bounds":[122.9,24,153.99,45.5]}},
    {"type":"Feature","id":"place:country:KR","geometry":{"type":"Point","coordinates":[126.98,37.57]},"properties":{"id":"place:country:KR","name":"South Korea","altNames":["Korea","Republic of Korea"],"kind":"country","countryCode":"KR","importance":0.9,"capital":"Seoul","bounds":[124.6,33.1,131.9,38.6]}},
    {"type":"Feature","id":"place:country:TH","geometry":{"type":"Point","coordinates":[100.5,13.76]},"properties":{"id":"place:country:TH","name":"Thailand","altNames":[],"kind":"country","countryCode":"TH","importance":0.9,"capital":"Bangkok","bounds":[97.3,5.6,105.6,20.5]}},
    {"type":"Feature","id":"place:country:VN","geometry":{"type":"Point","coordinates":[105.85,21.03]},"properties":{"id":"place:country:VN","name":"Vietnam","altNames":["Viet Nam"],"kind":"country","countryCode":"VN","importance":0.9,"capital":"Hanoi","bounds":[102.1,8.4,109.5,23.4]}},
    {"type":"Feature","id":"place:country:ID","geometry":{"type":"Point","coordinates":[106.85,-6.21]},"properties":{"id":"place:country:ID","name":"Indonesia","altNames":[],"kind":"country","countryCode":"ID","importance":0.9,"capital":"Jakarta","bounds":[95,-11,141,6.1]}},
    {"type":"Feature","id":"place:country:PH","geometry":{"type":"Point","coordinates":[120.98,14.6]},"properties":{"id":"place:country:PH","name":"Philippines","altNames":["Pilipinas"],"kind":"country","countryCode":"PH","importance":0.9,"capital":"Manila","bounds":[116.9,4.6,126.6,21.1]}},
    {"type":"Feature","id":"place:country:SG","geometry":{"type":"Point","coordinates":[103.82,1.35]},"properties":{"id":"place:country:SG","name":"Singapore","altNames":[],"kind":"country","countryCode":"SG","importance":0.9,"capital":"Singapore","bounds":[103.6,1.2,104.1,1.5]}},
    {"type":"Feature","id":"place:country:MY","geometry":{"type":"Point","coordinates":[101.69,3.14]},"properties":{"id":"place:country:MY","name":"Malaysia","altNames":[],"kind":"country","countryCode":"MY","importance":0.9,"capital":"Kuala Lumpur","bounds":[99.6,0.9,119.3,7.4]}},
    {"type":"Feature","id":"place:country:AU","geometry":{"type":"Point","coordinates":[149.13,-35.28]},"properties":{"id":"place:country:AU","name":"Australia","altNames":[],"kind":"country","countryCode":"AU","importance":0.9,"capital":"Canberra","bounds":[112.9,-43.7,153.6,-10.7]}},
    {"type":"Feature","id":"place:country:NZ","geometry":{"type":"Point","coordinates":[174.78,-41.29]},"properties":{"id":"place:country:NZ","name":"New Zealand","altNames":["Aotearoa"],"kind":"country","countryCode":"NZ","importance":0.9,"capital":"Wellington","bounds":[166.4,-47.3,178.6,-34.4]}},
    {"type":"Feature","id":"place:country:IS","geometry":{"type":"Point","coordinates":[-21.94,64.15]},"properties":{"id":"place:country:IS","name":"Iceland","altNames":["Ísland"],"kind":"country","countryCode":"IS","importance":0.9,"capital":"Reykjavík","bounds":[-24.5,63.4,-13.5,66.5]}},
    {"type":"Feature","id":"place:city:tokyo-jp","geometry":{"type":"Point","coordinates":[139.69,35.68]},"properties":{"id":"place:city:tokyo-jp","name":"Tokyo","altNames":["Tōkyō"],"kind":"city","countryCode":"JP","importance":0.95}},
    {"type":"Feature","id":"place:city:london-gb","geometry":{"type":"Point","coordinates":[-0.13,51.51]},"properties":{"id":"place:city:london-gb","name":"London","altNames":[],"kind":"city","countryCode":"GB","importance":0.95}},
    {"type":"Feature","id":"place:city:paris-fr","geometry":{"type":"Point","coordinates":[2.35,48.86]},"properties":{"id":"place:city:paris-fr","name":"Paris","altNames":[],"kind":"city","countryCode":"FR","importance":0.9}},
    {"type":"Feature","id":"place:city:berlin-de","geometry":{"type":"Point","coordinates":[13.41,52.52]},"properties":{"id":"place:city:berlin-de","name":"Berlin","altNames":[],"kind":"city","countryCode":"DE","importance":0.8}},
    {"type":"Feature","id":"place:city:madrid-es","geometry":{"type":"Point","coordinates":[-3.7,40.42]},"properties":{"id":"place:city:madrid-es","name":"Madrid","altNames":[],"kind":"city","countryCode":"ES","importance":0.8}},
    {"type":"Feature","id":"place:city:rome-it","geometry":{"type":"Point","coordinates":[12.5,41.9]},"properties":{"id":"place:city:rome-it","name":"Rome","altNames":["Roma"],"kind":"city","countryCode":"IT","importance":0.8}},
    {"type":"Feature","id":"place:city:beijing-cn","geometry":{"type":"Point","coordinates":[116.41,39.9]},"properties":{"id":"place:city:beijing-cn","name":"Beijing","altNames":["Peking"],"kind":"city","countryCode":"CN","importance":0.9}},
    {"type":"Feature","id":"place:city:seoul-kr","geometry":{"type":"Point","coordinates":[126.98,37.57]},"properties":{"id":"place:city:seoul-kr","name":"Seoul","altNames":[],"kind":"city","countryCode":"KR","importance":0.85}},
    {"type":"Feature","id":"place:city:bangkok-th","geometry":{"type":"Point","coordinates":[100.5,13.76]},"properties":{"id":"place:city:bangkok-th","name":"Bangkok","altNames":["Krung Thep"],"kind":"city","countryCode":"TH","importance":0.8}},
    {"type":"Feature","id":"place:city:mexico-city-mx","geometry":{"type":"Point","coordinates":[-99.13,19.43]},"properties":{"id":"place:city:mexico-city-mx","name":"Mexico City","altNames":["Ciudad de México","CDMX"],"kind":"city","countryCode":"MX","importance":0.85}},
    {"type":"Feature","id":"place:city:washington-d-c-us","geometry":{"type":"Point","coordinates":[-77.04,38.9]},"properties":{"id":"place:city:washington-d-c-us","name":"Washington, D.C.","altNames":["Washington","Washington DC"],"kind":"city","countryCode":"US","importance":0.85}},
    {"type":"Feature","id":"place:city:moscow-ru","geometry":{"type":"Point","coordinates":[37.62,55.76]},"properties":{"id":"place:city:moscow-ru","name":"Moscow","altNames":["Moskva"],"kind":"city","countryCode":"RU","importance":0.85}},
    {"type":"Feature","id":"place:city:cairo-eg","geometry":{"type":"Point","coordinates":[31.24,30.04]},"properties":{"id":"place:city:cairo-eg","name":"Cairo","altNames":[],"kind":"city","countryCode":"EG","importance":0.8}},
    {"type":"Feature","id":"place:city:new-delhi-in","geometry":{"type":"Point","coordinates":[77.21,28.61]},"properties":{"id":"place:city:new-delhi-in","name":"New Delhi","altNames":["Delhi"],"kind":"city","countryCode":"IN","importance":0.85}},
    {"type":"Feature","id":"place:city:jakarta-id","geometry":{"type":"Point","coordinates":[106.85,-6.21]},"properties":{"id":"place:city:jakarta-id","name":"Jakarta","altNames":[],"kind":"city","countryCode":"ID","importance":0.8}},
    {"type":"Feature","id":"place:city:new-york-us","geometry":{"type":"Point","coordinates":[-74.01,40.71]},"properties":{"id":"place:city:new-york-us","name":"New York","altNames":["New York City","NYC"],"kind":"city","countryCode":"US","importance":0.95}},
    {"type":"Feature","id":"place:city:los-angeles-us","geometry":{"type":"Point","coordinates":[-118.24,34.05]},"properties":{"id":"place:city:los-angeles-us","name":"Los Angeles","altNames":["LA"],"kind":"city","countryCode":"US","importance":0.9}},
    {"type":"Feature","id":"place:city:san-francisco-us","geometry":{"type":"Point","coordinates":[-122.42,37.77]},"properties":{"id":"place:city:san-francisco-us","name":"San Francisco","altNames":["SF"],"kind":"city","countryCode":"US","importance":0.8}},
    {"type":"Feature","id":"place:city:chicago-us","geometry":{"type":"Point","coordinates":[-87.63,41.88]},"properties":{"id":"place:city:chicago-us","name":"Chicago","altNames":[],"kind":"city","countryCode":"US","importance":0.8}},
    {"type":"Feature","id":"place:city:houston-us","geometry":{"type":"Point","coordinates":[-95.37,29.76]},"properties":{"id":"place:city:houston-us","name":"Houston","altNames":[],"kind":"city","countryCode":"US","importance":0.7}},
    {"type":"Feature","id":"place:city:miami-us","geometry":{"type":"Point","coordinates":[-80.19,25.76]},"properties":{"id":"place:city:miami-us","name":"Miami","altNames":[],"kind":"city","countryCode":"US","importance":0.7}},
    {"type":"Feature","id":"place:city:seattle-us","geometry":{"type":"Point","coordinates":[-122.33,47.61]},"properties":{"id":"place:city:seattle-us","name":"Seattle","altNames":[],"kind":"city","countryCode":"US","importance":0.7}},
    {"type":"Feature","id":"place:city:anchorage-us","geometry":{"type":"Point","coordinates":[-149.9,61.22]},"properties":{"id":"place:city:anchorage-us","name":"Anchorage","altNames":[],"kind":"city","countryCode":"US","importance":0.5}},
    {"type":"Feature","id":"place:city:toronto-ca","geometry":{"type":"Point","coordinates":[-79.38,43.65]},"properties":{"id":"place:city:toronto-ca","name":"Toronto","altNames":[],"kind":"city","countryCode":"CA","importance":0.8}},
    {"type":"Feature","id":"place:city:vancouver-ca","geometry":{"type":"Point","coordinates":[-123.12,49.28]},"properties":{"id":"place:city:vancouver-ca","name":"Vancouver","altNames":[],"kind":"city","countryCode":"CA","importance":0.7}},
    {"type":"Feature","id":"place:city:sao-paulo-br","geometry":{"type":"Point","coordinates":[-46.63,-23.55]},"properties":{"id":"place:city:sao-paulo-br","name":"São Paulo","altNames":["Sao Paulo"],"kind":"city","countryCode":"BR","importance":0.85}},
    {"type":"Feature","id":"place:city:rio-de-janeiro-br","geometry":{"type":"Point","coordinates":[-43.17,-22.91]},"properties":{"id":"place:city:rio-de-janeiro-br","name":"Rio de Janeiro","altNames":["Rio"],"kind":"city","countryCode":"BR","importance":0.8}},
    {"type":"Feature","id":"place:city:buenos-aires-ar","geometry":{"type":"Point","coordinates":[-58.38,-34.6]},"properties":{"id":"place:city:buenos-aires-ar","name":"Buenos Aires","altNames":[],"kind":"city","countryCode":"AR","importance":0.8}},
    {"type":"Feature","id":"place:city:sydney-au","geometry":{"type":"Point","coordinates":[151.21,-33.87]},"properties":{"id":"place:city:sydney-au","name":"Sydney","altNames":[],"kind":"city","countryCode":"AU","importance":0.85}},
    {"type":"Feature","id":"place:city:melbourne-au","geometry":{"type":"Point","coordinates":[144.96,-37.81]},"properties":{"id":"place:city:melbourne-au","name":"Melbourne","altNames":[],"kind":"city","countryCode":"AU","importance":0.8}},
    {"type":"Feature","id":"place:city:auckland-nz","geometry":{"type":"Point","coordinates":[174.76,-36.85]},"properties":{"id":"place:city:auckland-nz","name":"Auckland","altNames":["Tāmaki Makaurau"],"kind":"city","countryCode":"NZ","importance":0.7}},
    {"type":"Feature","id":"place:city:shanghai-cn","geometry":{"type":"Point","coordinates":[121.47,31.23]},"properties":{"id":"place:city:shanghai-cn","name":"Shanghai","altNames":[],"kind":"city","countryCode":"CN","importance":0.9}},
    {"type":"Feature","id":"place:city:hong-kong-hk","geometry":{"type":"Point","coordinates":[114.17,22.32]},"properties":{"id":"place:city:hong-kong-hk","name":"Hong Kong","altNames":["Xianggang"],"kind":"city","countryCode":"HK","importance":0.85}},
    {"type":"Feature","id":"place:city:taipei-tw","geometry":{"type":"Point","coordinates":[121.56,25.03]},"properties":{"id":"place:city:taipei-tw","name":"Taipei","altNames":[],"kind":"city","countryCode":"TW","importance":0.75}},
    {"type":"Feature","id":"place:city:osaka-jp","geometry":{"type":"Point","coordinates":[135.5,34.69]},"properties":{"id":"place:city:osaka-jp","name":"Osaka","altNames":["Ōsaka"],"kind":"city","countryCode":"JP","importance":0.8}},
    {"type":"Feature","id":"place:city:mumbai-in","geometry":{"type":"Point","coordinates":[72.88,19.08]},"properties":{"id":"place:city:mumbai-in","name":"Mumbai","altNames":["Bombay"],"kind":"city","countryCode":"IN","importance":0.85}},
    {"type":"Feature","id":"place:city:dubai-ae","geometry":{"type":"Point","coordinates":[55.27,25.2]},"properties":{"id":"place:city:dubai-ae","name":"Dubai","altNames":[],"kind":"city","countryCode":"AE","importance":0.8}},
    {"type":"Feature","id":"place:city:istanbul-tr","geometry":{"type":"Point","coordinates":[28.98,41.01]},"properties":{"id":"place:city:istanbul-tr","name":"Istanbul","altNames":["İstanbul"],"kind":"city","countryCode":"TR","importance":0.85}},
    {"type":"Feature","id":"place:city:frankfurt-de","geometry":{"type":"Point","coordinates":[8.68,50.11]},"properties":{"id":"place:city:frankfurt-de","name":"Frankfurt","altNames":["Frankfurt am Main"],"kind":"city","countryCode":"DE","importance":0.7}},
    {"type":"Feature","id":"place:city:munich-de","geometry":{"type":"Point","coordinates":[11.58,48.14]},"properties":{"id":"place:city:munich-de","name":"Munich","altNames":["München"],"kind":"city","countryCode":"DE","importance":0.7}},
    {"type":"Feature","id":"place:city:amsterdam-nl","geometry":{"type":"Point","coordinates":[4.9,52.37]},"properties":{"id":"place:city:amsterdam-nl","name":"Amsterdam","altNames":[],"kind":"city","countryCode":"NL","importance":0.75}},
    {"type":"Feature","id":"place:city:zurich-ch","geometry":{"type":"Point","coordinates":[8.54,47.38]},"properties":{"id":"place:city:zurich-ch","name":"Zürich","altNames":["Zurich"],"kind":"city","countryCode":"CH","importance":0.7}},
    {"type":"Feature","id":"place:city:barcelona-es","geometry":{"type":"Point","coordinates":[2.17,41.39]},"properties":{"id":"place:city:barcelona-es","name":"Barcelona","altNames":[],"kind":"city","countryCode":"ES","importance":0.75}},
    {"type":"Feature","id":"place:city:milan-it","geometry":{"type":"Point","coordinates":[9.19,45.46]},"properties":{"id":"place:city:milan-it","name":"Milan","altNames":["Milano"],"kind":"city","countryCode":"IT","importance":0.75}},
    {"type":"Feature","id":"place:city:lagos-ng","geometry":{"type":"Point","coordinates":[3.38,6.52]},"properties":{"id":"place:city:lagos-ng","name":"Lagos","altNames":[],"kind":"city","countryCode":"NG","importance":0.8}},
    {"type":"Feature","id":"place:city:johannesburg-za","geometry":{"type":"Point","coordinates":[28.05,-26.2]},"properties":{"id":"place:city:johannesburg-za","name":"Johannesburg","altNames":["Joburg"],"kind":"city","countryCode":"ZA","importance":0.75}},
    {"type":"Feature","id":"place:city:cape-town-za","geometry":{"type":"Point","coordinates":[18.42,-33.92]},"properties":{"id":"place:city:cape-town-za","name":"Cape Town","altNames":["Kaapstad"],"kind":"city","countryCode":"ZA","importance":0.7}},
    {"type":"Feature","id":"airport:PHNL","geometry":{"type":"Point","coordinates":[-157.92,21.32]},"properties":{"id":"airport:PHNL","name":"Daniel K. Inouye International Airport","altNames":["Honolulu Airport"],"kind":"airport","countryCode":"US","importance":0.5,"iata":"HNL","icao":"PHNL","municipality":"Honolulu"}},
    {"type":"Feature","id":"airport:PHOG","geometry":{"type":"Point","coordinates":[-156.43,20.9]},"properties":{"id":"airport:PHOG","name":"Kahului Airport","altNames":["Kahului Airport"],"kind":"airport","countryCode":"US","importance":0.5,"iata":"OGG","icao":"PHOG","municipality":"Kahului"}},
    {"type":"Feature","id":"airport:PHKO","geometry":{"type":"Point","coordinates":[-156.05,19.74]},"properties":{"id":"airport:PHKO","name":"Ellison Onizuka Kona International Airport at Keāhole","altNames":["Kailua-Kona Airport"],"kind":"airport","countryCode":"US","importance":0.5,"iata":"KOA","icao":"PHKO","municipality":"Kailua-Kona"}},
    {"type":"Feature","id":"airport:PHTO","geometry":{"type":"Point","coordinates":[-155.05,19.72]},"properties":{"id":"airport:PHTO","name":"Hilo International Airport","altNames":["Hilo Airport"],"kind":"airport","countryCode":"US","importance":0.5,"iata":"ITO","icao":"PHTO","municipality":"Hilo"}},
    {"type":"Feature","id":"airport:PHLI","geometry":{"type":"Point","coordinates":[-159.34,21.98]},"properties":{"id":"airport:PHLI","name":"Līhuʻe Airport","altNames":["Līhuʻe Airport"],"kind":"airport","countryCode":"US","importance":0.5,"iata":"LIH","icao":"PHLI","municipality":"Līhuʻe"}},
    {"type":"Feature","id":"airport:KLAX","geometry":{"type":"Point","coordinates":[-118.41,33.94]},"properties":{"id":"airport:KLAX","name":"Los Angeles International Airport","altNames":["Los Angeles Airport"],"kind":"airport","countryCode":"US","importance":0.5,"iata":"LAX","icao":"KLAX","municipality":"Los Angeles"}},
    {"type":"Feature","id":"airport:KSFO","geometry":{"type":"Point","coordinates":[-122.38,37.62]},"properties":{"id":"airport:KSFO","name":"San Francisco International Airport","altNames":["San Francisco Airport"],"kind":"airport","countryCode":"US","importance":0.5,"iata":"SFO","icao":"KSFO","municipality":"San Francisco"}},
    {"type":"Feature","id":"airport:KJFK","geometry":{"type":"Point","coordinates":[-73.78,40.64]},"properties":{"id":"airport:KJFK","name":"John F. Kennedy International Airport","altNames":["New York Airport"],"kind":"airport","countryCode":"US","importance":0.5,"iata":"JFK","icao":"KJFK","municipality":"New York"}},
    {"type":"Feature","id":"airport:KORD","geometry":{"type":"Point","coordinates":[-87.9,41.98]},"properties":{"id":"airport:KORD","name":"Chicago O'Hare International Airport","altNames":["Chicago Airport"],"kind":"airport","countryCode":"US","importance":0.5,"iata":"ORD","icao":"KORD","municipality":"Chicago"}},
    {"type":"Feature","id":"airport:KATL","geometry":{"type":"Point","coordinates":[-84.43,33.64]},"properties":{"id":"airport:KATL","name":"Hartsfield–Jackson Atlanta International Airport","altNames":["Atlanta Airport"],"kind":"airport","countryCode":"US","importance":0.5,"iata":"ATL","icao":"KATL","municipality":"Atlanta"}},
    {"type":"Feature","id":"airport:KDFW","geometry":{"type":"Point","coordinates":[-97.04,32.9]},"properties":{"id":"airport:KDFW","name":"Dallas/Fort Worth International Airport","altNames":["Dallas-Fort Worth Airport"],"kind":"airport","countryCode":"US","importance":0.5,"iata":"DFW","icao":"KDFW","municipality":"Dallas-Fort Worth"}},
    {"type":"Feature","id":"airport:KDEN","geometry":{"type":"Point","coordinates":[-104.67,39.86]},"properties":{"id":"airport:KDEN","name":"Denver International Airport","altNames":["Denver Airport"],"kind":"airport","countryCode":"US","importance":0.5,"iata":"DEN","icao":"KDEN","municipality":"Denver"}},
    {"type":"Feature","id":"airport:KSEA","geometry":{"type":"Point","coordinates":[-122.31,47.45]},"properties":{"id":"airport:KSEA","name":"Seattle–Tacoma International Airport","altNames":["Seattle Airport"],"kind":"airport","countryCode":"US","importance":0.5,"iata":"SEA","icao":"KSEA","municipality":"Seattle"}},
    {"type":"Feature","id":"airport:KMIA","geometry":{"type":"Point","coordinates":[-80.29,25.79]},"properties":{"id":"airport:KMIA","name":"Miami International Airport","altNames":["Miami Airport"],"kind":"airport","countryCode":"US","importance":0.5,"iata":"MIA","icao":"KMIA","municipality":"Miami"}},
    {"type":"Feature","id":"airport:PANC","geometry":{"type":"Point","coordinates":[-149.99,61.17]},"properties":{"id":"airport:PANC","name":"Ted Stevens Anchorage International Airport","altNames":["Anchorage Airport"],"kind":"airport","countryCode":"US","importance":0.5,"iata":"ANC","icao":"PANC","municipality":"Anchorage"}},
    {"type":"Feature","id":"airport:CYVR","geometry":{"type":"Point","coordinates":[-123.18,49.19]},"properties":{"id":"airport:CYVR","name":"Vancouver International Airport","altNames":["Vancouver Airport"],"kind":"airport","countryCode":"CA","importance":0.5,"iata":"YVR","icao":"CYVR","municipality":"Vancouver"}},
    {"type":"Feature","id":"airport:EGLL","geometry":{"type":"Point","coordinates":[-0.46,51.47]},"properties":{"id":"airport:EGLL","name":"London Heathrow Airport","altNames":["London Airport"],"kind":"airport","countryCode":"GB","importance":0.5,"iata":"LHR","icao":"EGLL","municipality":"London"}},
    {"type":"Feature","id":"airport:LFPG","geometry":{"type":"Point","coordinates":[2.55,49.01]},"properties":{"id":"airport:LFPG","name":"Paris Charles de Gaulle Airport","altNames":["Paris Airport"],"kind":"airport","countryCode":"FR","importance":0.5,"iata":"CDG","icao":"LFPG","municipality":"Paris"}},
    {"type":"Feature","id":"airport:EHAM","geometry":{"type":"Point","coordinates":[4.76,52.31]},"properties":{"id":"airport:EHAM","name":"Amsterdam Airport Schiphol","altNames":["Amsterdam Airport"],"kind":"airport","countryCode":"NL","importance":0.5,"iata":"AMS","icao":"EHAM","municipality":"Amsterdam"}},
    {"type":"Feature","id":"airport:EDDF","geometry":{"type":"Point","coordinates":[8.57,50.03]},"properties":{"id":"airport:EDDF","name":"Frankfurt Airport","altNames":["Frankfurt Airport"],"kind":"airport","countryCode":"DE","importance":0.5,"iata":"FRA","icao":"EDDF","municipality":"Frankfurt"}},
    {"type":"Feature","id":"airport:LEMD","geometry":{"type":"Point","coordinates":[-3.56,40.47]},"properties":{"id":"airport:LEMD","name":"Adolfo Suárez Madrid–Barajas Airport","altNames":["Madrid Airport"],"kind":"airport","countryCode":"ES","importance":0.5,"iata":"MAD","icao":"LEMD","municipality":"Madrid"}},
    {"type":"Feature","id":"airport:OMDB","geometry":{"type":"Point","coordinates":[55.36,25.25]},"properties":{"id":"airport:OMDB","name":"Dubai International Airport","altNames":["Dubai Airport"],"kind":"airport","countryCode":"AE","importance":0.5,"iata":"DXB","icao":"OMDB","municipality":"Dubai"}},
    {"type":"Feature","id":"airport:WSSS","geometry":{"type":"Point","coordinates":[103.99,1.36]},"properties":{"id":"airport:WSSS","name":"Singapore Changi Airport","altNames":["Singapore Airport"],"kind":"airport","countryCode":"SG","importance":0.5,"iata":"SIN","icao":"WSSS","municipality":"Singapore"}},
    {"type":"Feature","id":"airport:VHHH","geometry":{"type":"Point","coordinates":[113.91,22.31]},"properties":{"id":"airport:VHHH","name":"Hong Kong International Airport","altNames":["Hong Kong Airport"],"kind":"airport","countryCode":"HK","importance":0.5,"iata":"HKG","icao":"VHHH","municipality":"Hong Kong"}},
    {"type":"Feature","id":"airport:ZBAA","geometry":{"type":"Point","coordinates":[116.58,40.08]},"properties":{"id":"airport:ZBAA","name":"Beijing Capital International Airport","altNames":["Beijing Airport"],"kind":"airport","countryCode":"CN","importance":0.5,"iata":"PEK","icao":"ZBAA","municipality":"Beijing"}},
    {"type":"Feature","id":"airport:RKSI","geometry":{"type":"Point","coordinates":[126.44,37.46]},"properties":{"id":"airport:RKSI","name":"Incheon International Airport","altNames":["Seoul Airport"],"kind":"airport","countryCode":"KR","importance":0.5,"iata":"ICN","icao":"RKSI","municipality":"Seoul"}},
    {"type":"Feature","id":"airport:RJAA","geometry":{"type":"Point","coordinates":[140.39,35.77]},"properties":{"id":"airport:RJAA","name":"Narita International Airport","altNames":["Tokyo Airport"],"kind":"airport","countryCode":"JP","importance":0.5,"iata":"NRT","icao":"RJAA","municipality":"Tokyo"}},
    {"type":"Feature","id":"airport:RJTT","geometry":{"type":"Point","coordinates":[139.78,35.55]},"properties":{"id":"airport:RJTT","name":"Tokyo Haneda Airport","altNames":["Tokyo Airport"],"kind":"airport","countryCode":"JP","importance":0.5,"iata":"HND","icao":"RJTT","municipality":"Tokyo"}},
    {"type":"Feature","id":"airport:YSSY","geometry":{"type":"Point","coordinates":[151.18,-33.95]},"properties":{"id":"airport:YSSY","name":"Sydney Kingsford Smith Airport","altNames":["Sydney Airport"],"kind":"airport","countryCode":"AU","importance":0.5,"iata":"SYD","icao":"YSSY","municipality":"Sydney"}},
    {"type":"Feature","id":"airport:NZAA","geometry":{"type":"Point","coordinates":[174.79,-37.01]},"properties":{"id":"airport:NZAA","name":"Auckland Airport","altNames":["Auckland Airport"],"kind":"airport","countryCode":"NZ","importance":0.5,"iata":"AKL","icao":"NZAA","municipality":"Auckland"}},
    {"type":"Feature","id":"place:region:hawaii-hi","geometry":{"type":"Point","coordinates":[-156.33,20.8]},"properties":{"id":"place:region:hawaii-hi","name":"Hawaii","altNames":["Hawaiʻi","State of Hawaii","Hawaiian Islands"],"kind":"region","countryCode":"US","importance":0.9,"bounds":[-160.25,18.91,-154.81,22.24]}},
    {"type":"Feature","id":"place:region:oahu-hi","geometry":{"type":"Point","coordinates":[-157.98,21.48]},"properties":{"id":"place:region:oahu-hi","name":"Oʻahu","altNames":["Oahu","Island of Oahu"],"kind":"region","countryCode":"US","importance":0.8,"bounds":[-158.3,21.25,-157.62,21.72]}},
    {"type":"Feature","id":"place:region:maui-hi","geometry":{"type":"Point","coordinates":[-156.33,20.8]},"properties":{"id":"place:region:maui-hi","name":"Maui","altNames":["Island of Maui"],"kind":"region","countryCode":"US","importance":0.75,"bounds":[-156.7,20.57,-155.98,21.03]}},
    {"type":"Feature","id":"place:region:hawaii-island-hi","geometry":{"type":"Point","coordinates":[-155.5,19.6]},"properties":{"id":"place:region:hawaii-island-hi","name":"Hawaiʻi Island","altNames":["Big Island","Hawaii Island","Island of Hawaii"],"kind":"region","countryCode":"US","importance":0.75,"bounds":[-156.07,18.91,-154.81,20.27]}},
    {"type":"Feature","id":"place:region:kauai-hi","geometry":{"type":"Point","coordinates":[-159.53,22.06]},"properties":{"id":"place:region:kauai-hi","name":"Kauaʻi","altNames":["Kauai","Island of Kauai"],"kind":"region","countryCode":"US","importance":0.7,"bounds":[-159.79,21.87,-159.29,22.24]}},
    {"type":"Feature","id":"place:region:molokai-hi","geometry":{"type":"Point","coordinates":[-157.02,21.13]},"properties":{"id":"place:region:molokai-hi","name":"Molokaʻi","altNames":["Molokai"],"kind":"region","countryCode":"US","importance":0.5,"bounds":[-157.32,21.04,-156.71,21.22]}},
    {"type":"Feature","id":"place:region:lanai-hi","geometry":{"type":"Point","coordinates":[-156.92,20.83]},"properties":{"id":"place:region:lanai-hi","name":"Lānaʻi","altNames":["Lanai"],"kind":"region","countryCode":"US","importance":0.45,"bounds":[-157.07,20.73,-156.8,20.93]}},
    {"type":"Feature","id":"place:city:honolulu-hi","geometry":{"type":"Point","coordinates":[-157.86,21.31]},"properties":{"id":"place:city:honolulu-hi","name":"Honolulu","altNames":[],"kind":"city","countryCode":"US","importance":0.85}},
    {"type":"Feature","id":"place:city:hilo-hi","geometry":{"type":"Point","coordinates":[-155.09,19.72]},"properties":{"id":"place:city:hilo-hi","name":"Hilo","altNames":[],"kind":"city","countryCode":"US","importance":0.6}},
    {"type":"Feature","id":"place:city:kailua-kona-hi","geometry":{"type":"Point","coordinates":[-155.99,19.64]},"properties":{"id":"place:city:kailua-kona-hi","name":"Kailua-Kona","altNames":["Kona","Kailua Kona"],"kind":"city","countryCode":"US","importance":0.6}},
    {"type":"Feature","id":"place:city:kahului-hi","geometry":{"type":"Point","coordinates":[-156.47,20.89]},"properties":{"id":"place:city:kahului-hi","name":"Kahului","altNames":[],"kind":"city","countryCode":"US","importance":0.5}},
    {"type":"Feature","id":"place:city:lihue-hi","geometry":{"type":"Point","coordinates":[-159.37,21.98]},"properties":{"id":"place:city:lihue-hi","name":"Līhuʻe","altNames":["Lihue"],"kind":"city","countryCode":"US","importance":0.5}},
    {"type":"Feature","id":"place:city:kaneohe-hi","geometry":{"type":"Point","coordinates":[-157.8,21.41]},"properties":{"id":"place:city:kaneohe-hi","name":"Kāneʻohe","altNames":["Kaneohe"],"kind":"city","countryCode":"US","importance":0.45}},
    {"type":"Feature","id":"place:city:lahaina-hi","geometry":{"type":"Point","coordinates":[-156.68,20.88]},"properties":{"id":"place:city:lahaina-hi","name":"Lahaina","altNames":[],"kind":"city","countryCode":"US","importance":0.5}},
    {"type":"Feature","id":"place:poi:pearl-harbor-hi","geometry":{"type":"Point","coordinates":[-157.95,21.36]},"properties":{"id":"place:poi:pearl-harbor-hi","name":"Pearl Harbor","altNames":[],"kind":"poi","countryCode":"US","importance":0.7}},
    {"type":"Feature","id":"place:poi:waikiki-hi","geometry":{"type":"Point","coordinates":[-157.83,21.28]},"properties":{"id":"place:poi:waikiki-hi","name":"Waikīkī","altNames":["Waikiki"],"kind":"poi","countryCode":"US","importance":0.7}},
    {"type":"Feature","id":"place:feature:diamond-head-hi","geometry":{"type":"Point","coordinates":[-157.81,21.26]},"properties":{"id":"place:feature:diamond-head-hi","name":"Diamond Head","altNames":["Lēʻahi"],"kind":"feature","countryCode":"US","importance":0.55}},
    {"type":"Feature","id":"place:feature:haleakala-hi","geometry":{"type":"Point","coordinates":[-156.25,20.71]},"properties":{"id":"place:feature:haleakala-hi","name":"Haleakalā","altNames":["Haleakala","Haleakalā National Park"],"kind":"feature","countryCode":"US","importance":0.65}},
    {"type":"Feature","id":"place:feature:mauna-kea-hi","geometry":{"type":"Point","coordinates":[-155.47,19.82]},"properties":{"id":"place:feature:mauna-kea-hi","name":"Mauna Kea","altNames":["Maunakea"],"kind":"feature","countryCode":"US","importance":0.65}},
    {"type":"Feature","id":"place:feature:mauna-loa-hi","geometry":{"type":"Point","coordinates":[-155.61,19.48]},"properties":{"id":"place:feature:mauna-loa-hi","name":"Mauna Loa","altNames":[],"kind":"feature","countryCode":"US","importance":0.6}},
    {"type":"Feature","id":"place:feature:kilauea-hi","geometry":{"type":"Point","coordinates":[-155.29,19.42]},"properties":{"id":"place:feature:kilauea-hi","name":"Kīlauea","altNames":["Kilauea","Hawaiʻi Volcanoes National Park"],"kind":"feature","countryCode":"US","importance":0.7}}
  ]
}
