{
  "type": "FeatureCollection",
  "features": [
    {"type":"Feature","id":"airport:PHNL","geometry":{"type":"Point","coordinates":[-157.92,21.32]},"properties":{"id":"airport:PHNL","name":"Daniel K. Inouye International Airport","iata":"HNL","icao":"PHNL","type":"large_airport","municipality":"Honolulu","countryCode":"US"}},
    {"type":"Feature","id":"airport:PHOG","geometry":{"type":"Point","coordinates":[-156.43,20.9]},"properties":{"id":"airport:PHOG","name":"Kahului Airport","iata":"OGG","icao":"PHOG","type":"large_airport","municipality":"Kahului","countryCode":"US"}},
    {"type":"Feature","id":"airport:PHKO","geometry":{"type":"Point","coordinates":[-156.05,19.74]},"properties":{"id":"airport:PHKO","name":"Ellison Onizuka Kona International Airport at Keāhole","iata":"KOA","icao":"PHKO","type":"large_airport","municipality":"Kailua-Kona","countryCode":"US"}},
    {"type":"Feature","id":"airport:PHTO","geometry":{"type":"Point","coordinates":[-155.05,19.72]},"properties":{"id":"airport:PHTO","name":"Hilo International Airport","iata":"ITO","icao":"PHTO","type":"large_airport","municipality":"Hilo","countryCode":"US"}},
    {"type":"Feature","id":"airport:PHLI","geometry":{"type":"Point","coordinates":[-159.34,21.98]},"properties":{"id":"airport:PHLI","name":"Līhuʻe Airport","iata":"LIH","icao":"PHLI","type":"large_airport","municipality":"Līhuʻe","countryCode":"US"}},
    {"type":"Feature","id":"airport:KLAX","geometry":{"type":"Point","coordinates":[-118.41,33.94]},"properties":{"id":"airport:KLAX","name":"Los Angeles International Airport","iata":"LAX","icao":"KLAX","type":"large_airport","municipality":"Los Angeles","countryCode":"US"}},
    {"type":"Feature","id":"airport:KSFO","geometry":{"type":"Point","coordinates":[-122.38,37.62]},"properties":{"id":"airport:KSFO","name":"San Francisco International Airport","iata":"SFO","icao":"KSFO","type":"large_airport","municipality":"San Francisco","countryCode":"US"}},
    {"type":"Feature","id":"airport:KJFK","geometry":{"type":"Point","coordinates":[-73.78,40.64]},"properties":{"id":"airport:KJFK","name":"John F. Kennedy International Airport","iata":"JFK","icao":"KJFK","type":"large_airport","municipality":"New York","countryCode":"US"}},
    {"type":"Feature","id":"airport:KEWR","geometry":{"type":"Point","coordinates":[-74.17,40.69]},"properties":{"id":"airport:KEWR","name":"Newark Liberty International Airport","iata":"EWR","icao":"KEWR","type":"large_airport","municipality":"Newark","countryCode":"US"}},
    {"type":"Feature","id":"airport:KORD","geometry":{"type":"Point","coordinates":[-87.9,41.98]},"properties":{"id":"airport:KORD","name":"Chicago O'Hare International Airport","iata":"ORD","icao":"KORD","type":"large_airport","municipality":"Chicago","countryCode":"US"}},
    {"type":"Feature","id":"airport:KATL","geometry":{"type":"Point","coordinates":[-84.43,33.64]},"properties":{"id":"airport:KATL","name":"Hartsfield–Jackson Atlanta International Airport","iata":"ATL","icao":"KATL","type":"large_airport","municipality":"Atlanta","countryCode":"US"}},
    {"type":"Feature","id":"airport:KDFW","geometry":{"type":"Point","coordinates":[-97.04,32.9]},"properties":{"id":"airport:KDFW","name":"Dallas/Fort Worth International Airport","iata":"DFW","icao":"KDFW","type":"large_airport","municipality":"Dallas-Fort Worth","countryCode":"US"}},
    {"type":"Feature","id":"airport:KDEN","geometry":{"type":"Point","coordinates":[-104.67,39.86]},"properties":{"id":"airport:KDEN","name":"Denver International Airport","iata":"DEN","icao":"KDEN","type":"large_airport","municipality":"Denver","countryCode":"US"}},
    {"type":"Feature","id":"airport:KSEA","geometry":{"type":"Point","coordinates":[-122.31,47.45]},"properties":{"id":"airport:KSEA","name":"Seattle–Tacoma International Airport","iata":"SEA","icao":"KSEA","type":"large_airport","municipality":"Seattle","countryCode":"US"}},
    {"type":"Feature","id":"airport:KMIA","geometry":{"type":"Point","coordinates":[-80.29,25.79]},"properties":{"id":"airport:KMIA","name":"Miami International Airport","iata":"MIA","icao":"KMIA","type":"large_airport","municipality":"Miami","countryCode":"US"}},
    {"type":"Feature","id":"airport:KIAH","geometry":{"type":"Point","coordinates":[-95.34,29.98]},"properties":{"id":"airport:KIAH","name":"George Bush Intercontinental Airport","iata":"IAH","icao":"KIAH","type":"large_airport","municipality":"Houston","countryCode":"US"}},
    {"type":"Feature","id":"airport:KBOS","geometry":{"type":"Point","coordinates":[-71.01,42.36]},"properties":{"id":"airport:KBOS","name":"Boston Logan International Airport","iata":"BOS","icao":"KBOS","type":"large_airport","municipality":"Boston","countryCode":"US"}},
    {"type":"Feature","id":"airport:KIAD","geometry":{"type":"Point","coordinates":[-77.46,38.95]},"properties":{"id":"airport:KIAD","name":"Washington Dulles International Airport","iata":"IAD","icao":"KIAD","type":"large_airport","municipality":"Washington, D.C.","countryCode":"US"}},
    {"type":"Feature","id":"airport:KLAS","geometry":{"type":"Point","coordinates":[-115.15,36.08]},"properties":{"id":"airport:KLAS","name":"Harry Reid International Airport","iata":"LAS","icao":"KLAS","type":"large_airport","municipality":"Las Vegas","countryCode":"US"}},
    {"type":"Feature","id":"airport:KPHX","geometry":{"type":"Point","coordinates":[-112.01,33.44]},"properties":{"id":"airport:KPHX","name":"Phoenix Sky Harbor International Airport","iata":"PHX","icao":"KPHX","type":"large_airport","municipality":"Phoenix","countryCode":"US"}},
    {"type":"Feature","id":"airport:PANC","geometry":{"type":"Point","coordinates":[-149.99,61.17]},"properties":{"id":"airport:PANC","name":"Ted Stevens Anchorage International Airport","iata":"ANC","icao":"PANC","type":"large_airport","municipality":"Anchorage","countryCode":"US"}},
    {"type":"Feature","id":"airport:CYYZ","geometry":{"type":"Point","coordinates":[-79.63,43.68]},"properties":{"id":"airport:CYYZ","name":"Toronto Pearson International Airport","iata":"YYZ","icao":"CYYZ","type":"large_airport","municipality":"Toronto","countryCode":"CA"}},
    {"type":"Feature","id":"airport:CYVR","geometry":{"type":"Point","coordinates":[-123.18,49.19]},"properties":{"id":"airport:CYVR","name":"Vancouver International Airport","iata":"YVR","icao":"CYVR","type":"large_airport","municipality":"Vancouver","countryCode":"CA"}},
    {"type":"Feature","id":"airport:MMMX","geometry":{"type":"Point","coordinates":[-99.07,19.44]},"properties":{"id":"airport:MMMX","name":"Mexico City International Airport","iata":"MEX","icao":"MMMX","type":"large_airport","municipality":"Mexico City","countryCode":"MX"}},
    {"type":"Feature","id":"airport:SBGR","geometry":{"type":"Point","coordinates":[-46.47,-23.43]},"properties":{"id":"airport:SBGR","name":"São Paulo/Guarulhos International Airport","iata":"GRU","icao":"SBGR","type":"large_airport","municipality":"São Paulo","countryCode":"BR"}},
    {"type":"Feature","id":"airport:SBGL","geometry":{"type":"Point","coordinates":[-43.25,-22.81]},"properties":{"id":"airport:SBGL","name":"Rio de Janeiro/Galeão International Airport","iata":"GIG","icao":"SBGL","type":"large_airport","municipality":"Rio de Janeiro","countryCode":"BR"}},
    {"type":"Feature","id":"airport:SAEZ","geometry":{"type":"Point","coordinates":[-58.54,-34.82]},"properties":{"id":"airport:SAEZ","name":"Ministro Pistarini International Airport","iata":"EZE","icao":"SAEZ","type":"large_airport","municipality":"Buenos Aires","countryCode":"AR"}},
    {"type":"Feature","id":"airport:SCEL","geometry":{"type":"Point","coordinates":[-70.79,-33.39]},"properties":{"id":"airport:SCEL","name":"Arturo Merino Benítez International Airport","iata":"SCL","icao":"SCEL","type":"large_airport","municipality":"Santiago","countryCode":"CL"}},
    {"type":"Feature","id":"airport:SKBO","geometry":{"type":"Point","coordinates":[-74.15,4.7]},"properties":{"id":"airport:SKBO","name":"El Dorado International Airport","iata":"BOG","icao":"SKBO","type":"large_airport","municipality":"Bogotá","countryCode":"CO"}},
    {"type":"Feature","id":"airport:SPJC","geometry":{"type":"Point","coordinates":[-77.11,-12.02]},"properties":{"id":"airport:SPJC","name":"Jorge Chávez International Airport","iata":"LIM","icao":"SPJC","type":"large_airport","municipality":"Lima","countryCode":"PE"}},
    {"type":"Feature","id":"airport:EGLL","geometry":{"type":"Point","coordinates":[-0.46,51.47]},"properties":{"id":"airport:EGLL","name":"London Heathrow Airport","iata":"LHR","icao":"EGLL","type":"large_airport","municipality":"London","countryCode":"GB"}},
    {"type":"Feature","id":"airport:EGKK","geometry":{"type":"Point","coordinates":[-0.19,51.15]},"properties":{"id":"airport:EGKK","name":"London Gatwick Airport","iata":"LGW","icao":"EGKK","type":"large_airport","municipality":"London","countryCode":"GB"}},
    {"type":"Feature","id":"airport:LFPG","geometry":{"type":"Point","coordinates":[2.55,49.01]},"properties":{"id":"airport:LFPG","name":"Paris Charles de Gaulle Airport","iata":"CDG","icao":"LFPG","type":"large_airport","municipality":"Paris","countryCode":"FR"}},
    {"type":"Feature","id":"airport:EHAM","geometry":{"type":"Point","coordinates":[4.76,52.31]},"properties":{"id":"airport:EHAM","name":"Amsterdam Airport Schiphol","iata":"AMS","icao":"EHAM","type":"large_airport","municipality":"Amsterdam","countryCode":"NL"}},
    {"type":"Feature","id":"airport:EDDF","geometry":{"type":"Point","coordinates":[8.57,50.03]},"properties":{"id":"airport:EDDF","name":"Frankfurt Airport","iata":"FRA","icao":"EDDF","type":"large_airport","municipality":"Frankfurt","countryCode":"DE"}},
    {"type":"Feature","id":"airport:EDDM","geometry":{"type":"Point","coordinates":[11.79,48.35]},"properties":{"id":"airport:EDDM","name":"Munich Airport","iata":"MUC","icao":"EDDM","type":"large_airport","municipality":"Munich","countryCode":"DE"}},
    {"type":"Feature","id":"airport:LEMD","geometry":{"type":"Point","coordinates":[-3.56,40.47]},"properties":{"id":"airport:LEMD","name":"Adolfo Suárez Madrid–Barajas Airport","iata":"MAD","icao":"LEMD","type":"large_airport","municipality":"Madrid","countryCode":"ES"}},
    {"type":"Feature","id":"airport:LEBL","geometry":{"type":"Point","coordinates":[2.08,41.3]},"properties":{"id":"airport:LEBL","name":"Josep Tarradellas Barcelona–El Prat Airport","iata":"BCN","icao":"LEBL","type":"large_airport","municipality":"Barcelona","countryCode":"ES"}},
    {"type":"Feature","id":"airport:LIRF","geometry":{"type":"Point","coordinates":[12.24,41.8]},"properties":{"id":"airport:LIRF","name":"Rome Fiumicino Airport","iata":"FCO","icao":"LIRF","type":"large_airport","municipality":"Rome","countryCode":"IT"}},
    {"type":"Feature","id":"airport:LSZH","geometry":{"type":"Point","coordinates":[8.55,47.46]},"properties":{"id":"airport:LSZH","name":"Zürich Airport","iata":"ZRH","icao":"LSZH","type":"large_airport","municipality":"Zürich","countryCode":"CH"}},
    {"type":"Feature","id":"airport:EKCH","geometry":{"type":"Point","coordinates":[12.66,55.62]},"properties":{"id":"airport:EKCH","name":"Copenhagen Airport","iata":"CPH","icao":"EKCH","type":"large_airport","municipality":"Copenhagen","countryCode":"DK"}},
    {"type":"Feature","id":"airport:ESSA","geometry":{"type":"Point","coordinates":[17.92,59.65]},"properties":{"id":"airport:ESSA","name":"Stockholm Arlanda Airport","iata":"ARN","icao":"ESSA","type":"large_airport","municipality":"Stockholm","countryCode":"SE"}},
    {"type":"Feature","id":"airport:ENGM","geometry":{"type":"Point","coordinates":[11.1,60.19]},"properties":{"id":"airport:ENGM","name":"Oslo Airport, Gardermoen","iata":"OSL","icao":"ENGM","type":"large_airport","municipality":"Oslo","countryCode":"NO"}},
    {"type":"Feature","id":"airport:EFHK","geometry":{"type":"Point","coordinates":[24.96,60.32]},"properties":{"id":"airport:EFHK","name":"Helsinki-Vantaa Airport","iata":"HEL","icao":"EFHK","type":"large_airport","municipality":"Helsinki","countryCode":"FI"}},
    {"type":"Feature","id":"airport:EIDW","geometry":{"type":"Point","coordinates":[-6.27,53.43]},"properties":{"id":"airport:EIDW","name":"Dublin Airport","iata":"DUB","icao":"EIDW","type":"large_airport","municipality":"Dublin","countryCode":"IE"}},
    {"type":"Feature","id":"airport:LTFM","geometry":{"type":"Point","coordinates":[28.75,41.28]},"properties":{"id":"airport:LTFM","name":"Istanbul Airport","iata":"IST","icao":"LTFM","type":"large_airport","municipality":"Istanbul","countryCode":"TR"}},
    {"type":"Feature","id":"airport:UUEE","geometry":{"type":"Point","coordinates":[37.41,55.97]},"properties":{"id":"airport:UUEE","name":"Sheremetyevo International Airport","iata":"SVO","icao":"UUEE","type":"large_airport","municipality":"Moscow","countryCode":"RU"}},
    {"type":"Feature","id":"airport:OMDB","geometry":{"type":"Point","coordinates":[55.36,25.25]},"properties":{"id":"airport:OMDB","name":"Dubai International Airport","iata":"DXB","icao":"OMDB","type":"large_airport","municipality":"Dubai","countryCode":"AE"}},
    {"type":"Feature","id":"airport:OTHH","geometry":{"type":"Point","coordinates":[51.61,25.27]},"properties":{"id":"airport:OTHH","name":"Hamad International Airport","iata":"DOH","icao":"OTHH","type":"large_airport","municipality":"Doha","countryCode":"QA"}},
    {"type":"Feature","id":"airport:HECA","geometry":{"type":"Point","coordinates":[31.41,30.12]},"properties":{"id":"airport:HECA","name":"Cairo International Airport","iata":"CAI","icao":"HECA","type":"large_airport","municipality":"Cairo","countryCode":"EG"}},
    {"type":"Feature","id":"airport:FAOR","geometry":{"type":"Point","coordinates":[28.25,-26.14]},"properties":{"id":"airport:FAOR","name":"O. R. Tambo International Airport","iata":"JNB","icao":"FAOR","type":"large_airport","municipality":"Johannesburg","countryCode":"ZA"}},
    {"type":"Feature","id":"airport:FACT","geometry":{"type":"Point","coordinates":[18.6,-33.97]},"properties":{"id":"airport:FACT","name":"Cape Town International Airport","iata":"CPT","icao":"FACT","type":"large_airport","municipality":"Cape Town","countryCode":"ZA"}},
    {"type":"Feature","id":"airport:HKJK","geometry":{"type":"Point","coordinates":[36.93,-1.32]},"properties":{"id":"airport:HKJK","name":"Jomo Kenyatta International Airport","iata":"NBO","icao":"HKJK","type":"large_airport","municipality":"Nairobi","countryCode":"KE"}},
    {"type":"Feature","id":"airport:DNMM","geometry":{"type":"Point","coordinates":[3.32,6.58]},"properties":{"id":"airport:DNMM","name":"Murtala Muhammed International Airport","iata":"LOS","icao":"DNMM","type":"large_airport","municipality":"Lagos","countryCode":"NG"}},
    {"type":"Feature","id":"airport:VIDP","geometry":{"type":"Point","coordinates":[77.1,28.57]},"properties":{"id":"airport:VIDP","name":"Indira Gandhi International Airport","iata":"DEL","icao":"VIDP","type":"large_airport","municipality":"New Delhi","countryCode":"IN"}},
    {"type":"Feature","id":"airport:VABB","geometry":{"type":"Point","coordinates":[72.87,19.09]},"properties":{"id":"airport:VABB","name":"Chhatrapati Shivaji Maharaj International Airport","iata":"BOM","icao":"VABB","type":"large_airport","municipality":"Mumbai","countryCode":"IN"}},
    {"type":"Feature","id":"airport:WSSS","geometry":{"type":"Point","coordinates":[103.99,1.36]},"properties":{"id":"airport:WSSS","name":"Singapore Changi Airport","iata":"SIN","icao":"WSSS","type":"large_airport","municipality":"Singapore","countryCode":"SG"}},
    {"type":"Feature","id":"airport:WMKK","geometry":{"type":"Point","coordinates":[101.71,2.75]},"properties":{"id":"airport:WMKK","name":"Kuala Lumpur International Airport","iata":"KUL","icao":"WMKK","type":"large_airport","municipality":"Kuala Lumpur","countryCode":"MY"}},
    {"type":"Feature","id":"airport:VTBS","geometry":{"type":"Point","coordinates":[100.75,13.69]},"properties":{"id":"airport:VTBS","name":"Suvarnabhumi Airport","iata":"BKK","icao":"VTBS","type":"large_airport","municipality":"Bangkok","countryCode":"TH"}},
    {"type":"Feature","id":"airport:WIII","geometry":{"type":"Point","coordinates":[106.66,-6.13]},"properties":{"id":"airport:WIII","name":"Soekarno–Hatta International Airport","iata":"CGK","icao":"WIII","type":"large_airport","municipality":"Jakarta","countryCode":"ID"}},
    {"type":"Feature","id":"airport:RPLL","geometry":{"type":"Point","coordinates":[121.02,14.51]},"properties":{"id":"airport:RPLL","name":"Ninoy Aquino International Airport","iata":"MNL","icao":"RPLL","type":"large_airport","municipality":"Manila","countryCode":"PH"}},
    {"type":"Feature","id":"airport:VHHH","geometry":{"type":"Point","coordinates":[113.91,22.31]},"properties":{"id":"airport:VHHH","name":"Hong Kong International Airport","iata":"HKG","icao":"VHHH","type":"large_airport","municipality":"Hong Kong","countryCode":"HK"}},
    {"type":"Feature","id":"airport:ZBAA","geometry":{"type":"Point","coordinates":[116.58,40.08]},"properties":{"id":"airport:ZBAA","name":"Beijing Capital International Airport","iata":"PEK","icao":"ZBAA","type":"large_airport","municipality":"Beijing","countryCode":"CN"}},
    {"type":"Feature","id":"airport:ZSPD","geometry":{"type":"Point","coordinates":[121.81,31.14]},"properties":{"id":"airport:ZSPD","name":"Shanghai Pudong International Airport","iata":"PVG","icao":"ZSPD","type":"large_airport","municipality":"Shanghai","countryCode":"CN"}},
    {"type":"Feature","id":"airport:RCTP","geometry":{"type":"Point","coordinates":[121.23,25.08]},"properties":{"id":"airport:RCTP","name":"Taiwan Taoyuan International Airport","iata":"TPE","icao":"RCTP","type":"large_airport","municipality":"Taoyuan","countryCode":"TW"}},
    {"type":"Feature","id":"airport:RKSI","geometry":{"type":"Point","coordinates":[126.44,37.46]},"properties":{"id":"airport:RKSI","name":"Incheon International Airport","iata":"ICN","icao":"RKSI","type":"large_airport","municipality":"Seoul","countryCode":"KR"}},
    {"type":"Feature","id":"airport:RJAA","geometry":{"type":"Point","coordinates":[140.39,35.77]},"properties":{"id":"airport:RJAA","name":"Narita International Airport","iata":"NRT","icao":"RJAA","type":"large_airport","municipality":"Tokyo","countryCode":"JP"}},
    {"type":"Feature","id":"airport:RJTT","geometry":{"type":"Point","coordinates":[139.78,35.55]},"properties":{"id":"airport:RJTT","name":"Tokyo Haneda Airport","iata":"HND","icao":"RJTT","type":"large_airport","municipality":"Tokyo","countryCode":"JP"}},
    {"type":"Feature","id":"airport:RJBB","geometry":{"type":"Point","coordinates":[135.24,34.43]},"properties":{"id":"airport:RJBB","name":"Kansai International Airport","iata":"KIX","icao":"RJBB","type":"large_airport","municipality":"Osaka","countryCode":"JP"}},
    {"type":"Feature","id":"airport:YSSY","geometry":{"type":"Point","coordinates":[151.18,-33.95]},"properties":{"id":"airport:YSSY","name":"Sydney Kingsford Smith Airport","iata":"SYD","icao":"YSSY","type":"large_airport","municipality":"Sydney","countryCode":"AU"}},
    {"type":"Feature","id":"airport:YMML","geometry":{"type":"Point","coordinates":[144.84,-37.67]},"properties":{"id":"airport:YMML","name":"Melbourne Airport","iata":"MEL","icao":"YMML","type":"large_airport","municipality":"Melbourne","countryCode":"AU"}},
    {"type":"Feature","id":"airport:YBBN","geometry":{"type":"Point","coordinates":[153.12,-27.38]},"properties":{"id":"airport:YBBN","name":"Brisbane Airport","iata":"BNE","icao":"YBBN","type":"large_airport","municipality":"Brisbane","countryCode":"AU"}},
    {"type":"Feature","id":"airport:NZAA","geometry":{"type":"Point","coordinates":[174.79,-37.01]},"properties":{"id":"airport:NZAA","name":"Auckland Airport","iata":"AKL","icao":"NZAA","type":"large_airport","municipality":"Auckland","countryCode":"NZ"}}
  ]
}
