{
  "@context": [
    "https://geojson.org/geojson-ld/geojson-context.jsonld",
    {
      "@version": "1.1",
      "wx": "https://api.weather.gov/ontology#",
      "@vocab": "https://api.weather.gov/ontology#"
    }
  ],
  "type": "FeatureCollection",
  "features": [
    {
      "id": "https://api.weather.gov/stations/KPHX/observations/2026-09-23T17:51:00+00:00",
      "type": "Feature",
      "geometry": {
        "type": "Point",
        "coordinates": [
          -112.00306,
          33.42778
        ]
      },
      "properties": {
        "@id": "https://api.weather.gov/stations/KPHX/observations/2026-09-23T17:51:00+00:00",
        "@type": "wx:ObservationStation",
        "elevation": {
          "unitCode": "wmoUnit:m",
          "value": 337
        },
        "station": "https://api.weather.gov/stations/KPHX",
        "stationId": "KPHX",
        "stationName": "Phoenix, Phoenix Sky Harbor International Airport",
        "timestamp": "2026-09-23T17:51:00+00:00",
        "rawMessage": "",
        "textDescription": "Clear",
        "icon": null,
        "presentWeather": [],
        "temperature": {
          "unitCode": "wmoUnit:degC",
          "value": 38.9,
          "qualityControl": "V"
        },
        "dewpoint": {
          "unitCode": "wmoUnit:degC",
          "value": 6.1,
          "qualityControl": "V"
        },
        "windDirection": {
          "unitCode": "wmoUnit:degree_(angle)",
          "value": 250,
          "qualityControl": "V"
        },
        "windSpeed": {
          "unitCode": "wmoUnit:km_h-1",
          "value": 14.76,
          "qualityControl": "V"
        },
        "windGust": {
          "unitCode": "wmoUnit:km_h-1",
          "value": null,
          "qualityControl": "Z"
        },
        "barometricPressure": {
          "unitCode": "wmoUnit:Pa",
          "value": 97380,
          "qualityControl": "V"
        },
        "seaLevelPressure": {
          "unitCode": "wmoUnit:Pa",
          "value": 100980,
          "qualityControl": "V"
        },
        "visibility": {
          "unitCode": "wmoUnit:m",
          "value": 16090,
          "qualityControl": "C"
        },
        "maxTemperatureLast24Hours": {
          "unitCode": "wmoUnit:degC",
          "value": null
        },
        "minTemperatureLast24Hours": {
          "unitCode": "wmoUnit:degC",
          "value": null
        },
        "precipitationLastHour": {
          "unitCode": "wmoUnit:mm",
          "value": null,
          "qualityControl": "Z"
        },
        "relativeHumidity": {
          "unitCode": "wmoUnit:percent",
          "value": 13.52,
          "qualityControl": "V"
        },
        "windChill": {
          "unitCode": "wmoUnit:degC",
          "value": null,
          "qualityControl": "V"
        },
        "heatIndex": {
          "unitCode": "wmoUnit:degC",
          "value": null,
          "qualityControl": "V"
        },
        "cloudLayers": [
          {
            "base": {
              "unitCode": "wmoUnit:m",
              "value": null
            },
            "amount": "CLR"
          }
        ]
      }
    }
  ]
}
