{
 "type": "FeatureCollection",
 "metadata": {
  "generated": 1789718400000,
  "url": "https://earthquake.usgs.gov/earthquakes/feed/v1.0/summary/all_day.geojson",
  "title": "stale",
  "status": 200,
  "api": "1.14.1",
  "count": 8
 },
 "features": [
  {
   "type": "Feature",
   "properties": {
    "mag": 5.7,
    "place": "98 km SSE of Kokopo, Papua New Guinea",
    "time": 1789718220000,
    "updated": 1789718400000,
    "tz": null,
    "url": "https://earthquake.usgs.gov/earthquakes/eventpage/us7000wv01",
    "detail": "https://earthquake.usgs.gov/earthquakes/feed/v1.0/detail/us7000wv01.geojson",
    "felt": 12,
    "cdi": 4.1,
    "mmi": null,
    "alert": "green",
    "status": "reviewed",
    "tsunami": 0,
    "sig": 3249,
    "net": "us",
    "code": "7000wv01",
    "ids": ",us7000wv01,",
    "sources": ",us,",
    "types": ",origin,phase-data,",
    "nst": 24,
    "dmin": 0.5,
    "rms": 0.4,
    "gap": 60,
    "magType": "mww",
    "type": "earthquake",
    "title": "M 5.7 - 98 km SSE of Kokopo, Papua New Guinea"
   },
   "geometry": {
    "type": "Point",
    "coordinates": [
     152.8,
     -5.2,
     45.3
    ]
   },
   "id": "us7000wv01"
  },
  {
   "type": "Feature",
   "properties": {
    "mag": 3.4,
    "place": "9 km S of Volcano, Hawaii",
    "time": 1789717380000,
    "updated": 1789717560000,
    "tz": null,
    "url": "https://earthquake.usgs.gov/earthquakes/eventpage/hv74012345",
    "detail": "https://earthquake.usgs.gov/earthquakes/feed/v1.0/detail/hv74012345.geojson",
    "felt": null,
    "cdi": null,
    "mmi": null,
    "alert": null,
    "status": "reviewed",
    "tsunami": 0,
    "sig": 1156,
    "net": "hv",
    "code": "74012345",
    "ids": ",hv74012345,",
    "sources": ",hv,",
    "types": ",origin,phase-data,",
    "nst": 24,
    "dmin": 0.5,
    "rms": 0.4,
    "gap": 60,
    "magType": "ml",
    "type": "earthquake",
    "title": "M 3.4 - 9 km S of Volcano, Hawaii"
   },
   "geometry": {
    "type": "Point",
    "coordinates": [
     -155.27,
     19.36,
     1.2
    ]
   },
   "id": "hv74012345"
  },
  {
   "type": "Feature",
   "properties": {
    "mag": 6.2,
    "place": "Near the east coast of Honshu, Japan",
    "time": 1789715880000,
    "updated": 1789716060000,
    "tz": null,
    "url": "https://earthquake.usgs.gov/earthquakes/eventpage/us7000wv02",
    "detail": "https://earthquake.usgs.gov/earthquakes/feed/v1.0/detail/us7000wv02.geojson",
    "felt": 340,
    "cdi": 5.4,
    "mmi": 6.1,
    "alert": "green",
    "status": "reviewed",
    "tsunami": 1,
    "sig": 3844,
    "net": "us",
    "code": "7000wv02",
    "ids": ",us7000wv02,",
    "sources": ",us,",
    "types": ",origin,phase-data,",
    "nst": 24,
    "dmin": 0.5,
    "rms": 0.4,
    "gap": 60,
    "magType": "mww",
    "type": "earthquake",
    "title": "M 6.2 - Near the east coast of Honshu, Japan"
   },
   "geometry": {
    "type": "Point",
    "coordinates": [
     142.1,
     38.4,
     32
    ]
   },
   "id": "us7000wv02"
  },
  {
   "type": "Feature",
   "properties": {
    "mag": 2.1,
    "place": "12 km NE of Ridgecrest, CA",
    "time": 1789714500000,
    "updated": 1789714680000,
    "tz": null,
    "url": "https://earthquake.usgs.gov/earthquakes/eventpage/ci40912345",
    "detail": "https://earthquake.usgs.gov/earthquakes/feed/v1.0/detail/ci40912345.geojson",
    "felt": null,
    "cdi": null,
    "mmi": null,
    "alert": null,
    "status": "automatic",
    "tsunami": 0,
    "sig": 441,
    "net": "ci",
    "code": "40912345",
    "ids": ",ci40912345,",
    "sources": ",ci,",
    "types": ",origin,phase-data,",
    "nst": 24,
    "dmin": 0.5,
    "rms": 0.4,
    "gap": 60,
    "magType": "ml",
    "type": "earthquake",
    "title": "M 2.1 - 12 km NE of Ridgecrest, CA"
   },
   "geometry": {
    "type": "Point",
    "coordinates": [
     -117.55,
     35.7,
     7.9
    ]
   },
   "id": "ci40912345"
  },
  {
   "type": "Feature",
   "properties": {
    "mag": 4,
    "place": "63 km W of Anchor Point, Alaska",
    "time": 1789711200000,
    "updated": 1789711380000,
    "tz": null,
    "url": "https://earthquake.usgs.gov/earthquakes/eventpage/ak0261abcd",
    "detail": "https://earthquake.usgs.gov/earthquakes/feed/v1.0/detail/ak0261abcd.geojson",
    "felt": null,
    "cdi": null,
    "mmi": null,
    "alert": null,
    "status": "reviewed",
    "tsunami": 0,
    "sig": 1600,
    "net": "ak",
    "code": "0261abcd",
    "ids": ",ak0261abcd,",
    "sources": ",ak,",
    "types": ",origin,phase-data,",
    "nst": 24,
    "dmin": 0.5,
    "rms": 0.4,
    "gap": 60,
    "magType": "ml",
    "type": "earthquake",
    "title": "M 4.0 - 63 km W of Anchor Point, Alaska"
   },
   "geometry": {
    "type": "Point",
    "coordinates": [
     -152.9,
     59.8,
     88.4
    ]
   },
   "id": "ak0261abcd"
  },
  {
   "type": "Feature",
   "properties": {
    "mag": 4.8,
    "place": "Antofagasta, Chile",
    "time": 1789704000000,
    "updated": 1789704180000,
    "tz": null,
    "url": "https://earthquake.usgs.gov/earthquakes/eventpage/us7000wv03",
    "detail": "https://earthquake.usgs.gov/earthquakes/feed/v1.0/detail/us7000wv03.geojson",
    "felt": null,
    "cdi": null,
    "mmi": null,
    "alert": null,
    "status": "reviewed",
    "tsunami": 0,
    "sig": 2304,
    "net": "us",
    "code": "7000wv03",
    "ids": ",us7000wv03,",
    "sources": ",us,",
    "types": ",origin,phase-data,",
    "nst": 24,
    "dmin": 0.5,
    "rms": 0.4,
    "gap": 60,
    "magType": "mb",
    "type": "earthquake",
    "title": "M 4.8 - Antofagasta, Chile"
   },
   "geometry": {
    "type": "Point",
    "coordinates": [
     -69.1,
     -23.6,
     110.5
    ]
   },
   "id": "us7000wv03"
  },
  {
   "type": "Feature",
   "properties": {
    "mag": 1.3,
    "place": "2 km NW of The Geysers, CA",
    "time": 1789717500000,
    "updated": 1789717680000,
    "tz": null,
    "url": "https://earthquake.usgs.gov/earthquakes/eventpage/nc75012345",
    "detail": "https://earthquake.usgs.gov/earthquakes/feed/v1.0/detail/nc75012345.geojson",
    "felt": null,
    "cdi": null,
    "mmi": null,
    "alert": null,
    "status": "reviewed",
    "tsunami": 0,
    "sig": 169,
    "net": "nc",
    "code": "75012345",
    "ids": ",nc75012345,",
    "sources": ",nc,",
    "types": ",origin,phase-data,",
    "nst": 24,
    "dmin": 0.5,
    "rms": 0.4,
    "gap": 60,
    "magType": "md",
    "type": "quarry blast",
    "title": "M 1.3 Quarry Blast - 2 km NW of The Geysers, CA"
   },
   "geometry": {
    "type": "Point",
    "coordinates": [
     -122.78,
     38.79,
     2.3
    ]
   },
   "id": "nc75012345"
  },
  {
   "type": "Feature",
   "properties": {
    "mag": 5.1,
    "place": "South of the Fiji Islands",
    "time": 1789682400000,
    "updated": 1789682580000,
    "tz": null,
    "url": "https://earthquake.usgs.gov/earthquakes/eventpage/us7000wv04",
    "detail": "https://earthquake.usgs.gov/earthquakes/feed/v1.0/detail/us7000wv04.geojson",
    "felt": null,
    "cdi": null,
    "mmi": null,
    "alert": null,
    "status": "reviewed",
    "tsunami": 0,
    "sig": 2601,
    "net": "us",
    "code": "7000wv04",
    "ids": ",us7000wv04,",
    "sources": ",us,",
    "types": ",origin,phase-data,",
    "nst": 24,
    "dmin": 0.5,
    "rms": 0.4,
    "gap": 60,
    "magType": "mww",
    "type": "earthquake",
    "title": "M 5.1 - South of the Fiji Islands"
   },
   "geometry": {
    "type": "Point",
    "coordinates": [
     -178.9,
     -24.1,
     540
    ]
   },
   "id": "us7000wv04"
  }
 ]
}