{
 "type": "FeatureCollection",
 "features": [
  {
   "type": "Feature",
   "id": 1,
   "geometry": {
    "type": "MultiPolygon",
    "coordinates": [
     [
      [
       [
        -95.3,
        45.2
       ],
       [
        -92.1,
        48.6
       ],
       [
        -102.5,
        49.2
       ],
       [
        -106.8,
        45.8
       ],
       [
        -113.3,
        44.9
       ],
       [
        -118.9,
        37.1
       ],
       [
        -115.8,
        32.4
       ],
       [
        -106.6,
        31.6
       ],
       [
        -104.3,
        29.3
       ],
       [
        -101.4,
        38.7
       ],
       [
        -95.3,
        45.2
       ]
      ],
      [
       [
        -108.7,
        39.7
       ],
       [
        -109.1,
        41.6
       ],
       [
        -106.0,
        42.9
       ],
       [
        -104.2,
        38.3
       ],
       [
        -106.3,
        37.2
       ],
       [
        -108.7,
        39.7
       ]
      ]
     ],
     [
      [
       [
        -97.7,
        33.9
       ],
       [
        -101.4,
        31.1
       ],
       [
        -94.7,
        32.0
       ],
       [
        -97.7,
        33.9
       ]
      ]
     ],
     [
      [
       [
        -81.7,
        26.4
       ],
       [
        -83.3,
        24.2
       ],
       [
        -80.1,
        24.9
       ],
       [
        -81.7,
        26.4
       ]
      ]
     ]
    ]
   },
   "properties": {
    "objectid": 1,
    "dn": 2,
    "valid": "202609231300",
    "expire": "202609241200",
    "idp_source": "day1otlk_20260923_1300_cat",
    "idp_filedate": 1790166916000,
    "idp_ingestdate": 1790166928000,
    "st_area(shape)": 4268857379384.6562,
    "st_perimeter(shape)": 15356224.431664245,
    "issue": "202609231228",
    "label": "TSTM",
    "label2": "General Thunderstorms Risk",
    "stroke": "#55BB55",
    "fill": "#C1E9C1"
   }
  },
  {
   "type": "Feature",
   "id": 2,
   "geometry": {
    "type": "Polygon",
    "coordinates": [
     [
      [
       -100.5,
       40.5
      ],
      [
       -97.0,
       41.5
      ],
      [
       -98.0,
       37.5
      ],
      [
       -101.0,
       37.0
      ],
      [
       -100.5,
       40.5
      ]
     ]
    ]
   },
   "properties": {
    "objectid": 2,
    "dn": 3,
    "valid": "202609231300",
    "expire": "202609241200",
    "idp_source": "day1otlk_20260923_1300_cat",
    "idp_filedate": 1790166916000,
    "idp_ingestdate": 1790166928000,
    "issue": "202609231228",
    "label": "MRGL",
    "label2": "Marginal Risk"
   }
  },
  {
   "type": "Feature",
   "id": 3,
   "geometry": {
    "type": "Polygon",
    "coordinates": [
     [
      [
       -99.8,
       39.8
      ],
      [
       -97.8,
       40.4
      ],
      [
       -98.4,
       38.2
      ],
      [
       -100.2,
       38.0
      ],
      [
       -99.8,
       39.8
      ]
     ]
    ]
   },
   "properties": {
    "objectid": 3,
    "dn": 4,
    "valid": "202609231300",
    "expire": "202609241200",
    "idp_source": "day1otlk_20260923_1300_cat",
    "idp_filedate": 1790166916000,
    "idp_ingestdate": 1790166928000,
    "issue": "202609231228",
    "label": "SLGT",
    "label2": "Slight Risk"
   }
  },
  {
   "type": "Feature",
   "id": 4,
   "geometry": {
    "type": "Polygon",
    "coordinates": [
     [
      [
       -99.2,
       39.2
      ],
      [
       -98.4,
       39.4
      ],
      [
       -98.7,
       38.6
      ],
      [
       -99.4,
       38.6
      ],
      [
       -99.2,
       39.2
      ]
     ]
    ]
   },
   "properties": {
    "objectid": 4,
    "dn": 5,
    "valid": "202609231300",
    "expire": "202609241200",
    "idp_source": "day1otlk_20260923_1300_cat",
    "idp_filedate": 1790166916000,
    "idp_ingestdate": 1790166928000,
    "issue": "202609231228",
    "label": "ENH",
    "label2": "Enhanced Risk"
   }
  }
 ]
}