{
 "@context": [
  "https://geojson.org/geojson-ld/geojson-context.jsonld",
  {
   "@version": "1.1",
   "wx": "https://api.weather.gov/ontology#",
   "@vocab": "https://api.weather.gov/ontology#"
  }
 ],
 "type": "FeatureCollection",
 "features": [
  {
   "id": "https://api.weather.gov/alerts/urn:oid:2.49.0.1.840.0.1c2d3e4f5a6b7c8d9e0f1a2b3c4d5e6f7a8b9c0d.001.1",
   "type": "Feature",
   "geometry": {
    "type": "Polygon",
    "coordinates": [
     [
      [
       -97.5,
       95.1
      ],
      [
       -97.2,
       35.1
      ],
      [
       -97.2,
       35.3
      ],
      [
       -97.5,
       95.1
      ]
     ]
    ]
   },
   "properties": {
    "@id": "https://api.weather.gov/alerts/urn:oid:2.49.0.1.840.0.1c2d3e4f5a6b7c8d9e0f1a2b3c4d5e6f7a8b9c0d.001.1",
    "@type": "wx:Alert",
    "id": "urn:oid:2.49.0.1.840.0.1c2d3e4f5a6b7c8d9e0f1a2b3c4d5e6f7a8b9c0d.001.1",
    "areaDesc": "Cleveland, OK; McClain, OK",
    "geocode": {
     "SAME": [
      "040027",
      "040087"
     ],
     "UGC": [
      "OKC027",
      "OKC087"
     ]
    },
    "affectedZones": [
     "https://api.weather.gov/zones/county/OKC027",
     "https://api.weather.gov/zones/county/OKC087"
    ],
    "references": [],
    "sent": "2026-09-21T02:31:00-05:00",
    "effective": "2026-09-21T02:31:00-05:00",
    "onset": "2026-09-21T02:31:00-05:00",
    "expires": "2026-09-21T03:15:00-05:00",
    "ends": "2026-09-21T03:15:00-05:00",
    "status": "Actual",
    "messageType": "Alert",
    "category": "Met",
    "severity": "Extreme",
    "certainty": "Observed",
    "urgency": "Immediate",
    "event": "Tornado Warning",
    "sender": "w-nws.webmaster@noaa.gov",
    "senderName": "NWS Norman OK",
    "headline": "Tornado Warning issued September 21 at 2:31AM CDT until September 21 at 3:15AM CDT by NWS Norman OK",
    "description": "TOROUN\n\nThe National Weather Service in Norman has issued a\n\n* Tornado Warning for...\n  Northeastern Cleveland County in central Oklahoma...\n\n* Until 315 AM CDT.\n\n* At 231 AM CDT, a severe thunderstorm capable of producing a tornado was located near Noble, moving northeast at 35 mph.",
    "instruction": "TAKE COVER NOW! Move to a basement or an interior room on the lowest floor of a sturdy building.",
    "response": "Shelter",
    "parameters": {
     "AWIPSidentifier": [
      "TOROUN"
     ],
     "WMOidentifier": [
      "WGUS54 KEWX 210745"
     ]
    }
   }
  },
  {
   "id": "https://api.weather.gov/alerts/urn:oid:2.49.0.1.840.0.2b3c4d5e6f7a8b9c0d1e2f3a4b5c6d7e8f9a0b1c.001.1",
   "type": "Feature",
   "geometry": {
    "type": "LineString",
    "coordinates": [
     [
      -97.6,
      37.5
     ],
     [
      -97.1,
      37.8
     ]
    ]
   },
   "properties": {
    "@id": "https://api.weather.gov/alerts/urn:oid:2.49.0.1.840.0.2b3c4d5e6f7a8b9c0d1e2f3a4b5c6d7e8f9a0b1c.001.1",
    "@type": "wx:Alert",
    "id": "urn:oid:2.49.0.1.840.0.2b3c4d5e6f7a8b9c0d1e2f3a4b5c6d7e8f9a0b1c.001.1",
    "areaDesc": "Sedgwick, KS",
    "geocode": {
     "SAME": [
      "020173"
     ],
     "UGC": [
      "KSC173"
     ]
    },
    "affectedZones": [
     "https://api.weather.gov/zones/county/KSC173"
    ],
    "references": [
     {
      "@id": "https://api.weather.gov/alerts/urn:oid:2.49.0.1.840.0.0000000000000000000000000000000000000001.001.1",
      "identifier": "urn:oid:2.49.0.1.840.0.0000000000000000000000000000000000000001.001.1",
      "sender": "w-nws.webmaster@noaa.gov",
      "sent": "2026-09-21T02:20:00-05:00"
     }
    ],
    "sent": "2026-09-21T02:50:00-05:00",
    "effective": "2026-09-21T02:50:00-05:00",
    "onset": "2026-09-21T02:50:00-05:00",
    "expires": "2026-09-21T03:30:00-05:00",
    "ends": "2026-09-21T03:30:00-05:00",
    "status": "Actual",
    "messageType": "Update",
    "category": "Met",
    "severity": "Severe",
    "certainty": "Observed",
    "urgency": "Immediate",
    "event": "Severe Thunderstorm Warning",
    "sender": "w-nws.webmaster@noaa.gov",
    "senderName": "NWS Wichita KS",
    "headline": "Severe Thunderstorm Warning issued September 21 at 2:50AM CDT until September 21 at 3:30AM CDT by NWS Wichita KS",
    "description": "SVSICT\n\nAt 250 AM CDT, a severe thunderstorm was located over Wichita, moving east at 40 mph.\n\nHAZARD...60 mph wind gusts and quarter size hail.",
    "instruction": null,
    "response": "Shelter",
    "parameters": {
     "AWIPSidentifier": [
      "SVSICT"
     ],
     "WMOidentifier": [
      "WGUS54 KEWX 210745"
     ]
    }
   }
  },
  {
   "id": "https://api.weather.gov/alerts/urn:oid:2.49.0.1.840.0.bb4d5e6f7a8b9c0d1e2f3a4b5c6d7e8f9a0b1c2d.001.1",
   "type": "Feature",
   "geometry": {
    "type": "Polygon",
    "coordinates": [
     [
      [
       -97.35,
       27.3
      ],
      [
       -96.95,
       27.35
      ],
      [
       -96.9,
       27.85
      ],
      [
       -97.3,
       27.8
      ],
      [
       -97.35,
       27.3
      ]
     ]
    ]
   },
   "properties": {
    "@id": "https://api.weather.gov/alerts/urn:oid:2.49.0.1.840.0.bb4d5e6f7a8b9c0d1e2f3a4b5c6d7e8f9a0b1c2d.001.1",
    "@type": "wx:Alert",
    "id": "urn:oid:2.49.0.1.840.0.bb4d5e6f7a8b9c0d1e2f3a4b5c6d7e8f9a0b1c2d.001.1",
    "areaDesc": "Coastal waters from Baffin Bay to Port Aransas out 20 NM",
    "geocode": {
     "SAME": [],
     "UGC": [
      "GMZ150"
     ]
    },
    "affectedZones": [
     "https://api.weather.gov/zones/forecast/GMZ150"
    ],
    "references": [],
    "sent": "2026-09-18T02:10:00-05:00",
    "effective": "2026-09-18T02:10:00-05:00",
    "onset": "2026-09-18T02:10:00-05:00",
    "expires": "2026-09-18T04:00:00-05:00",
    "ends": "2026-09-18T04:00:00-05:00",
    "status": "Actual",
    "messageType": "Alert",
    "category": "Met",
    "severity": "Moderate",
    "certainty": "Observed",
    "urgency": "Immediate",
    "event": "Special Marine Warning",
    "sender": "w-nws.webmaster@noaa.gov",
    "senderName": "NWS Corpus Christi TX",
    "headline": "Special Marine Warning issued September 21 at 2:10AM CDT until September 21 at 4:00AM CDT by NWS Corpus Christi TX",
    "description": "SMWCRP\n\nThe National Weather Service in Corpus Christi has issued a\n\n* Special Marine Warning for...\n  Coastal waters from Baffin Bay to Port Aransas out 20 NM...",
    "instruction": null,
    "response": "Avoid",
    "parameters": {
     "AWIPSidentifier": [
      "SMWCRP"
     ],
     "WMOidentifier": [
      "WGUS54 KEWX 210745"
     ]
    }
   }
  },
  {
   "id": "https://api.weather.gov/alerts/urn:oid:2.49.0.1.840.0.4d5e6f7a8b9c0d1e2f3a4b5c6d7e8f9a0b1c2d3e.001.1",
   "type": "Feature",
   "geometry": {
    "type": "Polygon",
    "coordinates": [
     [
      [
       -112.35,
       33.3
      ],
      [
       -111.8,
       33.32
      ],
      [
       -111.78,
       33.7
      ],
      [
       -112.33,
       33.68
      ],
      [
       -112.35,
       33.3
      ]
     ]
    ]
   },
   "properties": {
    "@id": "https://api.weather.gov/alerts/urn:oid:2.49.0.1.840.0.4d5e6f7a8b9c0d1e2f3a4b5c6d7e8f9a0b1c2d3e.001.1",
    "@type": "wx:Alert",
    "id": "urn:oid:2.49.0.1.840.0.4d5e6f7a8b9c0d1e2f3a4b5c6d7e8f9a0b1c2d3e.001.1",
    "areaDesc": "Maricopa, AZ",
    "geocode": {
     "SAME": [
      "004013"
     ],
     "UGC": [
      "AZC013"
     ]
    },
    "affectedZones": [
     "https://api.weather.gov/zones/county/AZC013"
    ],
    "references": [],
    "sent": null,
    "effective": "2026-09-21T00:20:00-07:00",
    "onset": "2026-09-21T00:20:00-07:00",
    "expires": "2026-09-21T03:15:00-07:00",
    "ends": "2026-09-21T03:15:00-07:00",
    "status": "Actual",
    "messageType": "Alert",
    "category": "Met",
    "severity": "Minor",
    "certainty": "Likely",
    "urgency": "Expected",
    "event": "Flood Advisory",
    "sender": "w-nws.webmaster@noaa.gov",
    "senderName": "NWS Phoenix AZ",
    "headline": "Flood Advisory issued September 21 at 12:20AM MST until September 21 at 3:15AM MST by NWS Phoenix AZ",
    "description": "FLSPSR\n\n* WHAT...Urban and small stream flooding caused by excessive rainfall is expected.\n\n* WHERE...A portion of south central Arizona, including the following county, Maricopa.",
    "instruction": null,
    "response": "Monitor",
    "parameters": {
     "AWIPSidentifier": [
      "FLSPSR"
     ],
     "WMOidentifier": [
      "WGUS54 KEWX 210745"
     ]
    }
   }
  },
  {
   "id": "https://api.weather.gov/alerts/not a valid id",
   "type": "Feature",
   "geometry": {
    "type": "Polygon",
    "coordinates": [
     [
      [
       -111.9,
       32.7
      ],
      [
       -111.45,
       32.72
      ],
      [
       -111.42,
       33.05
      ],
      [
       -111.88,
       33.03
      ],
      [
       -111.9,
       32.7
      ]
     ]
    ]
   },
   "properties": {
    "@id": "https://api.weather.gov/alerts/urn:oid:2.49.0.1.840.0.5e6f7a8b9c0d1e2f3a4b5c6d7e8f9a0b1c2d3e4f.001.1",
    "@type": "wx:Alert",
    "id": "urn with spaces",
    "areaDesc": "Pinal, AZ",
    "geocode": {
     "SAME": [
      "004021"
     ],
     "UGC": [
      "AZC021"
     ]
    },
    "affectedZones": [
     "https://api.weather.gov/zones/county/AZC021"
    ],
    "references": [],
    "sent": "2026-09-21T00:35:00-07:00",
    "effective": "2026-09-21T00:35:00-07:00",
    "onset": "2026-09-21T00:35:00-07:00",
    "expires": "2026-09-21T01:30:00-07:00",
    "ends": "2026-09-21T01:30:00-07:00",
    "status": "Actual",
    "messageType": "Alert",
    "category": "Met",
    "severity": "Severe",
    "certainty": "Observed",
    "urgency": "Immediate",
    "event": "Dust Storm Warning",
    "sender": "w-nws.webmaster@noaa.gov",
    "senderName": "NWS Phoenix AZ",
    "headline": "Dust Storm Warning issued September 21 at 12:35AM MST until September 21 at 1:30AM MST by NWS Phoenix AZ",
    "description": "DSWPSR\n\n* At 1235 AM MST, a wall of dust was along a line extending from Casa Grande to Eloy, moving northwest at 30 mph.\n\nHAZARD...Less than a quarter mile visibility with strong wind in excess of 40 mph.",
    "instruction": "Pull aside, stay alive. Pull off the road, turn off your lights and keep your foot off the brake.",
    "response": "Avoid",
    "parameters": {
     "AWIPSidentifier": [
      "DSWPSR"
     ],
     "WMOidentifier": [
      "WGUS54 KEWX 210745"
     ]
    }
   }
  },
  "not a feature"
 ],
 "title": "Current watches, warnings, and advisories",
 "updated": "2026-09-21T07:58:12+00:00"
}
