{
 "@context": [
  "https://geojson.org/geojson-ld/geojson-context.jsonld",
  {
   "@version": "1.1",
   "wx": "https://api.weather.gov/ontology#",
   "@vocab": "https://api.weather.gov/ontology#"
  }
 ],
 "type": "FeatureCollection",
 "features": [
  {
   "id": "https://api.weather.gov/alerts/urn:oid:2.49.0.1.840.0.8ea5b47ac7ab2ff0f8f3d5d6c9c0d5c8f4e3b4b6.001.1",
   "type": "Feature",
   "geometry": {
    "type": "Polygon",
    "coordinates": [
     [
      [
       -97.98,
       30.05
      ],
      [
       -97.45,
       30.08
      ],
      [
       -97.42,
       30.72
      ],
      [
       -97.95,
       30.7
      ],
      [
       -97.98,
       30.05
      ]
     ]
    ]
   },
   "properties": {
    "@id": "https://api.weather.gov/alerts/urn:oid:2.49.0.1.840.0.8ea5b47ac7ab2ff0f8f3d5d6c9c0d5c8f4e3b4b6.001.1",
    "@type": "wx:Alert",
    "id": "urn:oid:2.49.0.1.840.0.8ea5b47ac7ab2ff0f8f3d5d6c9c0d5c8f4e3b4b6.001.1",
    "areaDesc": "Travis, TX; Williamson, TX",
    "geocode": {
     "SAME": [
      "048453",
      "048491"
     ],
     "UGC": [
      "TXC453",
      "TXC491"
     ]
    },
    "affectedZones": [
     "https://api.weather.gov/zones/county/TXC453",
     "https://api.weather.gov/zones/county/TXC491"
    ],
    "references": [],
    "sent": "2026-09-21T02:45:00-05:00",
    "effective": "2026-09-21T02:45:00-05:00",
    "onset": "2026-09-21T02:45:00-05:00",
    "expires": "2026-09-21T05:45:00-05:00",
    "ends": "2026-09-21T05:45:00-05:00",
    "status": "Actual",
    "messageType": "Alert",
    "category": "Met",
    "severity": "Severe",
    "certainty": "Likely",
    "urgency": "Immediate",
    "event": "Flash Flood Warning",
    "sender": "w-nws.webmaster@noaa.gov",
    "senderName": "NWS Austin/San Antonio TX",
    "headline": "Flash Flood Warning issued September 21 at 2:45AM CDT until September 21 at 5:45AM CDT by NWS Austin/San Antonio TX",
    "description": "FFWEWX\n\nThe National Weather Service in Austin/San Antonio has issued a\n\n* Flash Flood Warning for...\n  Travis County in south central Texas...\n  Williamson County in south central Texas...\n\n* Until 545 AM CDT.\n\n* At 245 AM CDT, Doppler radar indicated thunderstorms producing heavy rain across the warned area. Between 2 and 4 inches of rain have fallen.",
    "instruction": "Turn around, don't drown when encountering flooded roads. Most flood deaths occur in vehicles.",
    "response": "Avoid",
    "parameters": {
     "AWIPSidentifier": [
      "FFWEWX"
     ],
     "WMOidentifier": [
      "WGUS54 KEWX 210745"
     ]
    }
   }
  },
  {
   "id": "https://api.weather.gov/alerts/urn:oid:2.49.0.1.840.0.1c2d3e4f5a6b7c8d9e0f1a2b3c4d5e6f7a8b9c0d.001.1",
   "type": "Feature",
   "geometry": {
    "type": "Polygon",
    "coordinates": [
     [
      [
       -97.52,
       35.1
      ],
      [
       -97.25,
       35.12
      ],
      [
       -97.22,
       35.32
      ],
      [
       -97.5,
       35.3
      ],
      [
       -97.52,
       35.1
      ]
     ]
    ]
   },
   "properties": {
    "@id": "https://api.weather.gov/alerts/urn:oid:2.49.0.1.840.0.1c2d3e4f5a6b7c8d9e0f1a2b3c4d5e6f7a8b9c0d.001.1",
    "@type": "wx:Alert",
    "id": "urn:oid:2.49.0.1.840.0.1c2d3e4f5a6b7c8d9e0f1a2b3c4d5e6f7a8b9c0d.001.1",
    "areaDesc": "Cleveland, OK; McClain, OK",
    "geocode": {
     "SAME": [
      "040027",
      "040087"
     ],
     "UGC": [
      "OKC027",
      "OKC087"
     ]
    },
    "affectedZones": [
     "https://api.weather.gov/zones/county/OKC027",
     "https://api.weather.gov/zones/county/OKC087"
    ],
    "references": [],
    "sent": "2026-09-21T02:31:00-05:00",
    "effective": "2026-09-21T02:31:00-05:00",
    "onset": "2026-09-21T02:31:00-05:00",
    "expires": "2026-09-21T03:15:00-05:00",
    "ends": "2026-09-21T03:15:00-05:00",
    "status": "Actual",
    "messageType": "Alert",
    "category": "Met",
    "severity": "Extreme",
    "certainty": "Observed",
    "urgency": "Immediate",
    "event": "Tornado Warning",
    "sender": "w-nws.webmaster@noaa.gov",
    "senderName": "NWS Norman OK",
    "headline": "Tornado Warning issued September 21 at 2:31AM CDT until September 21 at 3:15AM CDT by NWS Norman OK",
    "description": "TOROUN\n\nThe National Weather Service in Norman has issued a\n\n* Tornado Warning for...\n  Northeastern Cleveland County in central Oklahoma...\n\n* Until 315 AM CDT.\n\n* At 231 AM CDT, a severe thunderstorm capable of producing a tornado was located near Noble, moving northeast at 35 mph.",
    "instruction": "TAKE COVER NOW! Move to a basement or an interior room on the lowest floor of a sturdy building.",
    "response": "Shelter",
    "parameters": {
     "AWIPSidentifier": [
      "TOROUN"
     ],
     "WMOidentifier": [
      "WGUS54 KEWX 210745"
     ]
    }
   }
  },
  {
   "id": "https://api.weather.gov/alerts/urn:oid:2.49.0.1.840.0.2b3c4d5e6f7a8b9c0d1e2f3a4b5c6d7e8f9a0b1c.001.1",
   "type": "Feature",
   "geometry": {
    "type": "Polygon",
    "coordinates": [
     [
      [
       -97.6,
       37.55
      ],
      [
       -97.15,
       37.58
      ],
      [
       -97.12,
       37.85
      ],
      [
       -97.58,
       37.83
      ],
      [
       -97.6,
       37.55
      ]
     ]
    ]
   },
   "properties": {
    "@id": "https://api.weather.gov/alerts/urn:oid:2.49.0.1.840.0.2b3c4d5e6f7a8b9c0d1e2f3a4b5c6d7e8f9a0b1c.001.1",
    "@type": "wx:Alert",
    "id": "urn:oid:2.49.0.1.840.0.2b3c4d5e6f7a8b9c0d1e2f3a4b5c6d7e8f9a0b1c.001.1",
    "areaDesc": "Sedgwick, KS",
    "geocode": {
     "SAME": [
      "020173"
     ],
     "UGC": [
      "KSC173"
     ]
    },
    "affectedZones": [
     "https://api.weather.gov/zones/county/KSC173"
    ],
    "references": [
     {
      "@id": "https://api.weather.gov/alerts/urn:oid:2.49.0.1.840.0.0000000000000000000000000000000000000001.001.1",
      "identifier": "urn:oid:2.49.0.1.840.0.0000000000000000000000000000000000000001.001.1",
      "sender": "w-nws.webmaster@noaa.gov",
      "sent": "2026-09-21T02:20:00-05:00"
     }
    ],
    "sent": "2026-09-21T02:50:00-05:00",
    "effective": "2026-09-21T02:50:00-05:00",
    "onset": "2026-09-21T02:50:00-05:00",
    "expires": "2026-09-21T03:30:00-05:00",
    "ends": "2026-09-21T03:30:00-05:00",
    "status": "Actual",
    "messageType": "Update",
    "category": "Met",
    "severity": "Severe",
    "certainty": "Observed",
    "urgency": "Immediate",
    "event": "Severe Thunderstorm Warning",
    "sender": "w-nws.webmaster@noaa.gov",
    "senderName": "NWS Wichita KS",
    "headline": "Severe Thunderstorm Warning issued September 21 at 2:50AM CDT until September 21 at 3:30AM CDT by NWS Wichita KS",
    "description": "SVSICT\n\nAt 250 AM CDT, a severe thunderstorm was located over Wichita, moving east at 40 mph.\n\nHAZARD...60 mph wind gusts and quarter size hail.",
    "instruction": null,
    "response": "Shelter",
    "parameters": {
     "AWIPSidentifier": [
      "SVSICT"
     ],
     "WMOidentifier": [
      "WGUS54 KEWX 210745"
     ]
    }
   }
  },
  {
   "id": "https://api.weather.gov/alerts/urn:oid:2.49.0.1.840.0.3c4d5e6f7a8b9c0d1e2f3a4b5c6d7e8f9a0b1c2d.001.1",
   "type": "Feature",
   "geometry": {
    "type": "Polygon",
    "coordinates": [
     [
      [
       -97.35,
       27.3
      ],
      [
       -96.95,
       27.35
      ],
      [
       -96.9,
       27.85
      ],
      [
       -97.3,
       27.8
      ],
      [
       -97.35,
       27.3
      ]
     ]
    ]
   },
   "properties": {
    "@id": "https://api.weather.gov/alerts/urn:oid:2.49.0.1.840.0.3c4d5e6f7a8b9c0d1e2f3a4b5c6d7e8f9a0b1c2d.001.1",
    "@type": "wx:Alert",
    "id": "urn:oid:2.49.0.1.840.0.3c4d5e6f7a8b9c0d1e2f3a4b5c6d7e8f9a0b1c2d.001.1",
    "areaDesc": "Coastal waters from Baffin Bay to Port Aransas out 20 NM",
    "geocode": {
     "SAME": [],
     "UGC": [
      "GMZ150"
     ]
    },
    "affectedZones": [
     "https://api.weather.gov/zones/forecast/GMZ150"
    ],
    "references": [],
    "sent": "2026-09-21T02:10:00-05:00",
    "effective": "2026-09-21T02:10:00-05:00",
    "onset": "2026-09-21T02:10:00-05:00",
    "expires": "2026-09-21T04:00:00-05:00",
    "ends": "2026-09-21T04:00:00-05:00",
    "status": "Actual",
    "messageType": "Alert",
    "category": "Met",
    "severity": "Moderate",
    "certainty": "Observed",
    "urgency": "Immediate",
    "event": "Special Marine Warning",
    "sender": "w-nws.webmaster@noaa.gov",
    "senderName": "NWS Corpus Christi TX",
    "headline": "Special Marine Warning issued September 21 at 2:10AM CDT until September 21 at 4:00AM CDT by NWS Corpus Christi TX",
    "description": "SMWCRP\n\nThe National Weather Service in Corpus Christi has issued a\n\n* Special Marine Warning for...\n  Coastal waters from Baffin Bay to Port Aransas out 20 NM...",
    "instruction": null,
    "response": "Avoid",
    "parameters": {
     "AWIPSidentifier": [
      "SMWCRP"
     ],
     "WMOidentifier": [
      "WGUS54 KEWX 210745"
     ]
    }
   }
  },
  {
   "id": "https://api.weather.gov/alerts/urn:oid:2.49.0.1.840.0.4d5e6f7a8b9c0d1e2f3a4b5c6d7e8f9a0b1c2d3e.001.1",
   "type": "Feature",
   "geometry": {
    "type": "Polygon",
    "coordinates": [
     [
      [
       -112.35,
       33.3
      ],
      [
       -111.8,
       33.32
      ],
      [
       -111.78,
       33.7
      ],
      [
       -112.33,
       33.68
      ],
      [
       -112.35,
       33.3
      ]
     ]
    ]
   },
   "properties": {
    "@id": "https://api.weather.gov/alerts/urn:oid:2.49.0.1.840.0.4d5e6f7a8b9c0d1e2f3a4b5c6d7e8f9a0b1c2d3e.001.1",
    "@type": "wx:Alert",
    "id": "urn:oid:2.49.0.1.840.0.4d5e6f7a8b9c0d1e2f3a4b5c6d7e8f9a0b1c2d3e.001.1",
    "areaDesc": "Maricopa, AZ",
    "geocode": {
     "SAME": [
      "004013"
     ],
     "UGC": [
      "AZC013"
     ]
    },
    "affectedZones": [
     "https://api.weather.gov/zones/county/AZC013"
    ],
    "references": [],
    "sent": "2026-09-21T00:20:00-07:00",
    "effective": "2026-09-21T00:20:00-07:00",
    "onset": "2026-09-21T00:20:00-07:00",
    "expires": "2026-09-21T03:15:00-07:00",
    "ends": "2026-09-21T03:15:00-07:00",
    "status": "Actual",
    "messageType": "Alert",
    "category": "Met",
    "severity": "Minor",
    "certainty": "Likely",
    "urgency": "Expected",
    "event": "Flood Advisory",
    "sender": "w-nws.webmaster@noaa.gov",
    "senderName": "NWS Phoenix AZ",
    "headline": "Flood Advisory issued September 21 at 12:20AM MST until September 21 at 3:15AM MST by NWS Phoenix AZ",
    "description": "FLSPSR\n\n* WHAT...Urban and small stream flooding caused by excessive rainfall is expected.\n\n* WHERE...A portion of south central Arizona, including the following county, Maricopa.",
    "instruction": null,
    "response": "Monitor",
    "parameters": {
     "AWIPSidentifier": [
      "FLSPSR"
     ],
     "WMOidentifier": [
      "WGUS54 KEWX 210745"
     ]
    }
   }
  },
  {
   "id": "https://api.weather.gov/alerts/urn:oid:2.49.0.1.840.0.5e6f7a8b9c0d1e2f3a4b5c6d7e8f9a0b1c2d3e4f.001.1",
   "type": "Feature",
   "geometry": {
    "type": "Polygon",
    "coordinates": [
     [
      [
       -111.9,
       32.7
      ],
      [
       -111.45,
       32.72
      ],
      [
       -111.42,
       33.05
      ],
      [
       -111.88,
       33.03
      ],
      [
       -111.9,
       32.7
      ]
     ]
    ]
   },
   "properties": {
    "@id": "https://api.weather.gov/alerts/urn:oid:2.49.0.1.840.0.5e6f7a8b9c0d1e2f3a4b5c6d7e8f9a0b1c2d3e4f.001.1",
    "@type": "wx:Alert",
    "id": "urn:oid:2.49.0.1.840.0.5e6f7a8b9c0d1e2f3a4b5c6d7e8f9a0b1c2d3e4f.001.1",
    "areaDesc": "Pinal, AZ",
    "geocode": {
     "SAME": [
      "004021"
     ],
     "UGC": [
      "AZC021"
     ]
    },
    "affectedZones": [
     "https://api.weather.gov/zones/county/AZC021"
    ],
    "references": [],
    "sent": "2026-09-21T00:35:00-07:00",
    "effective": "2026-09-21T00:35:00-07:00",
    "onset": "2026-09-21T00:35:00-07:00",
    "expires": "2026-09-21T01:30:00-07:00",
    "ends": "2026-09-21T01:30:00-07:00",
    "status": "Actual",
    "messageType": "Alert",
    "category": "Met",
    "severity": "Severe",
    "certainty": "Observed",
    "urgency": "Immediate",
    "event": "Dust Storm Warning",
    "sender": "w-nws.webmaster@noaa.gov",
    "senderName": "NWS Phoenix AZ",
    "headline": "Dust Storm Warning issued September 21 at 12:35AM MST until September 21 at 1:30AM MST by NWS Phoenix AZ",
    "description": "DSWPSR\n\n* At 1235 AM MST, a wall of dust was along a line extending from Casa Grande to Eloy, moving northwest at 30 mph.\n\nHAZARD...Less than a quarter mile visibility with strong wind in excess of 40 mph.",
    "instruction": "Pull aside, stay alive. Pull off the road, turn off your lights and keep your foot off the brake.",
    "response": "Avoid",
    "parameters": {
     "AWIPSidentifier": [
      "DSWPSR"
     ],
     "WMOidentifier": [
      "WGUS54 KEWX 210745"
     ]
    }
   }
  },
  {
   "id": "https://api.weather.gov/alerts/urn:oid:2.49.0.1.840.0.6f7a8b9c0d1e2f3a4b5c6d7e8f9a0b1c2d3e4f5a.001.1",
   "type": "Feature",
   "geometry": null,
   "properties": {
    "@id": "https://api.weather.gov/alerts/urn:oid:2.49.0.1.840.0.6f7a8b9c0d1e2f3a4b5c6d7e8f9a0b1c2d3e4f5a.001.1",
    "@type": "wx:Alert",
    "id": "urn:oid:2.49.0.1.840.0.6f7a8b9c0d1e2f3a4b5c6d7e8f9a0b1c2d3e4f5a.001.1",
    "areaDesc": "Northern Park Range; Flat Tops",
    "geocode": {
     "SAME": [
      "008081",
      "008103"
     ],
     "UGC": [
      "COZ003",
      "COZ010"
     ]
    },
    "affectedZones": [
     "https://api.weather.gov/zones/forecast/COZ003",
     "https://api.weather.gov/zones/forecast/COZ010"
    ],
    "references": [],
    "sent": "2026-09-20T15:05:00-06:00",
    "effective": "2026-09-20T15:05:00-06:00",
    "onset": "2026-09-21T00:00:00-06:00",
    "expires": "2026-09-21T09:00:00-06:00",
    "ends": "2026-09-21T12:00:00-06:00",
    "status": "Actual",
    "messageType": "Alert",
    "category": "Met",
    "severity": "Moderate",
    "certainty": "Likely",
    "urgency": "Expected",
    "event": "Winter Weather Advisory",
    "sender": "w-nws.webmaster@noaa.gov",
    "senderName": "NWS Grand Junction CO",
    "headline": "Winter Weather Advisory issued September 20 at 3:05PM MDT until September 21 at 12:00PM MDT by NWS Grand Junction CO",
    "description": "WSWGJT\n\n* WHAT...Snow expected above 9000 feet. Total snow accumulations of 4 to 8 inches.\n\n* WHERE...Northern Park Range and Flat Tops.\n\n* WHEN...From midnight tonight to noon MDT Monday.",
    "instruction": "Slow down and use caution while traveling.",
    "response": "Execute",
    "parameters": {
     "AWIPSidentifier": [
      "WSWGJT"
     ],
     "WMOidentifier": [
      "WGUS54 KEWX 210745"
     ]
    }
   }
  },
  {
   "id": "https://api.weather.gov/alerts/urn:oid:2.49.0.1.840.0.7a8b9c0d1e2f3a4b5c6d7e8f9a0b1c2d3e4f5a6b.001.1",
   "type": "Feature",
   "geometry": {
    "type": "Polygon",
    "coordinates": [
     [
      [
       -122.05,
       38.9
      ],
      [
       -121.2,
       38.95
      ],
      [
       -121.15,
       39.8
      ],
      [
       -122,
       39.75
      ],
      [
       -122.05,
       38.9
      ]
     ]
    ]
   },
   "properties": {
    "@id": "https://api.weather.gov/alerts/urn:oid:2.49.0.1.840.0.7a8b9c0d1e2f3a4b5c6d7e8f9a0b1c2d3e4f5a6b.001.1",
    "@type": "wx:Alert",
    "id": "urn:oid:2.49.0.1.840.0.7a8b9c0d1e2f3a4b5c6d7e8f9a0b1c2d3e4f5a6b.001.1",
    "areaDesc": "Sacramento Valley; Northern Sierra Foothills",
    "geocode": {
     "SAME": [
      "006007",
      "006061"
     ],
     "UGC": [
      "CAZ263",
      "CAZ268"
     ]
    },
    "affectedZones": [
     "https://api.weather.gov/zones/forecast/CAZ263",
     "https://api.weather.gov/zones/forecast/CAZ268"
    ],
    "references": [],
    "sent": "2026-09-20T14:30:00-07:00",
    "effective": "2026-09-20T14:30:00-07:00",
    "onset": "2026-09-21T11:00:00-07:00",
    "expires": "2026-09-21T03:00:00-07:00",
    "ends": "2026-09-22T20:00:00-07:00",
    "status": "Actual",
    "messageType": "Alert",
    "category": "Met",
    "severity": "Severe",
    "certainty": "Likely",
    "urgency": "Expected",
    "event": "Red Flag Warning",
    "sender": "w-nws.webmaster@noaa.gov",
    "senderName": "NWS Sacramento CA",
    "headline": "Red Flag Warning issued September 20 at 2:30PM PDT until September 22 at 8:00PM PDT by NWS Sacramento CA",
    "description": "RFWSTO\n\n...RED FLAG WARNING IN EFFECT FROM 11 AM MONDAY TO 8 PM PDT TUESDAY FOR GUSTY NORTH WINDS AND LOW HUMIDITY...",
    "instruction": "A Red Flag Warning means that critical fire weather conditions are either occurring now, or will shortly.",
    "response": "Prepare",
    "parameters": {
     "AWIPSidentifier": [
      "RFWSTO"
     ],
     "WMOidentifier": [
      "WGUS54 KEWX 210745"
     ]
    }
   }
  },
  {
   "id": "https://api.weather.gov/alerts/urn:oid:2.49.0.1.840.0.8b9c0d1e2f3a4b5c6d7e8f9a0b1c2d3e4f5a6b7c.001.1",
   "type": "Feature",
   "geometry": null,
   "properties": {
    "@id": "https://api.weather.gov/alerts/urn:oid:2.49.0.1.840.0.8b9c0d1e2f3a4b5c6d7e8f9a0b1c2d3e4f5a6b7c.001.1",
    "@type": "wx:Alert",
    "id": "urn:oid:2.49.0.1.840.0.8b9c0d1e2f3a4b5c6d7e8f9a0b1c2d3e4f5a6b7c.001.1",
    "areaDesc": "Test Area",
    "geocode": {
     "SAME": [],
     "UGC": []
    },
    "affectedZones": [],
    "references": [],
    "sent": "2026-09-21T01:00:00-06:00",
    "effective": "2026-09-21T01:00:00-06:00",
    "onset": "2026-09-21T01:00:00-06:00",
    "expires": "2026-09-21T09:00:00-06:00",
    "ends": "2026-09-21T09:00:00-06:00",
    "status": "Actual",
    "messageType": "Alert",
    "category": "Met",
    "severity": "Unknown",
    "certainty": "Unknown",
    "urgency": "Unknown",
    "event": "Test Message",
    "sender": "w-nws.webmaster@noaa.gov",
    "senderName": "NWS Test",
    "headline": "Test Message",
    "description": "This is a test message with no geometry and no zones.",
    "instruction": null,
    "response": "None",
    "parameters": {
     "AWIPSidentifier": [
      "TSTXXX"
     ],
     "WMOidentifier": [
      "WGUS54 KEWX 210745"
     ]
    }
   }
  }
 ],
 "title": "Current watches, warnings, and advisories",
 "updated": "2026-09-21T07:58:12+00:00"
}
