{
 "@context": [
  "https://geojson.org/geojson-ld/geojson-context.jsonld",
  {
   "@version": "1.1",
   "wx": "https://api.weather.gov/ontology#",
   "@vocab": "https://api.weather.gov/ontology#"
  }
 ],
 "type": "FeatureCollection",
 "features": [
  {
   "id": "https://api.weather.gov/alerts/urn:oid:2.49.0.1.840.0.aaa5b47ac7ab2ff0f8f3d5d6c9c0d5c8f4e3b4b6.001.1",
   "type": "Feature",
   "geometry": {
    "type": "Polygon",
    "coordinates": [
     [
      [
       -97.98,
       30.05
      ],
      [
       -97.45,
       30.08
      ],
      [
       -97.42,
       30.72
      ],
      [
       -97.95,
       30.7
      ],
      [
       -97.98,
       30.05
      ]
     ]
    ]
   },
   "properties": {
    "@id": "https://api.weather.gov/alerts/urn:oid:2.49.0.1.840.0.aaa5b47ac7ab2ff0f8f3d5d6c9c0d5c8f4e3b4b6.001.1",
    "@type": "wx:Alert",
    "id": "urn:oid:2.49.0.1.840.0.aaa5b47ac7ab2ff0f8f3d5d6c9c0d5c8f4e3b4b6.001.1",
    "areaDesc": "Travis, TX; Williamson, TX",
    "geocode": {
     "SAME": [
      "048453",
      "048491"
     ],
     "UGC": [
      "TXC453",
      "TXC491"
     ]
    },
    "affectedZones": [
     "https://api.weather.gov/zones/county/TXC453",
     "https://api.weather.gov/zones/county/TXC491"
    ],
    "references": [],
    "sent": "2026-09-18T02:45:00-05:00",
    "effective": "2026-09-18T02:45:00-05:00",
    "onset": "2026-09-18T02:45:00-05:00",
    "expires": "2026-09-23T05:45:00-05:00",
    "ends": "2026-09-23T05:45:00-05:00",
    "status": "Actual",
    "messageType": "Alert",
    "category": "Met",
    "severity": "Severe",
    "certainty": "Likely",
    "urgency": "Immediate",
    "event": "Flash Flood Warning",
    "sender": "w-nws.webmaster@noaa.gov",
    "senderName": "NWS Austin/San Antonio TX",
    "headline": "Flash Flood Warning issued September 21 at 2:45AM CDT until September 21 at 5:45AM CDT by NWS Austin/San Antonio TX",
    "description": "FFWEWX\n\nThe National Weather Service in Austin/San Antonio has issued a\n\n* Flash Flood Warning for...\n  Travis County in south central Texas...\n  Williamson County in south central Texas...\n\n* Until 545 AM CDT.\n\n* At 245 AM CDT, Doppler radar indicated thunderstorms producing heavy rain across the warned area. Between 2 and 4 inches of rain have fallen.",
    "instruction": "Turn around, don't drown when encountering flooded roads. Most flood deaths occur in vehicles.",
    "response": "Avoid",
    "parameters": {
     "AWIPSidentifier": [
      "FFWEWX"
     ],
     "WMOidentifier": [
      "WGUS54 KEWX 210745"
     ]
    }
   }
  },
  {
   "id": "https://api.weather.gov/alerts/urn:oid:2.49.0.1.840.0.aa2d3e4f5a6b7c8d9e0f1a2b3c4d5e6f7a8b9c0d.001.1",
   "type": "Feature",
   "geometry": {
    "type": "Polygon",
    "coordinates": [
     [
      [
       -97.52,
       35.1
      ],
      [
       -97.25,
       35.12
      ],
      [
       -97.22,
       35.32
      ],
      [
       -97.5,
       35.3
      ],
      [
       -97.52,
       35.1
      ]
     ]
    ]
   },
   "properties": {
    "@id": "https://api.weather.gov/alerts/urn:oid:2.49.0.1.840.0.aa2d3e4f5a6b7c8d9e0f1a2b3c4d5e6f7a8b9c0d.001.1",
    "@type": "wx:Alert",
    "id": "urn:oid:2.49.0.1.840.0.aa2d3e4f5a6b7c8d9e0f1a2b3c4d5e6f7a8b9c0d.001.1",
    "areaDesc": "Cleveland, OK; McClain, OK",
    "geocode": {
     "SAME": [
      "040027",
      "040087"
     ],
     "UGC": [
      "OKC027",
      "OKC087"
     ]
    },
    "affectedZones": [
     "https://api.weather.gov/zones/county/OKC027",
     "https://api.weather.gov/zones/county/OKC087"
    ],
    "references": [],
    "sent": "2026-09-18T02:31:00-05:00",
    "effective": "2026-09-18T02:31:00-05:00",
    "onset": "2026-09-18T02:31:00-05:00",
    "expires": "2026-09-23T03:15:00-05:00",
    "ends": "2026-09-23T03:15:00-05:00",
    "status": "Actual",
    "messageType": "Alert",
    "category": "Met",
    "severity": "Extreme",
    "certainty": "Observed",
    "urgency": "Immediate",
    "event": "Tornado Warning",
    "sender": "w-nws.webmaster@noaa.gov",
    "senderName": "NWS Norman OK",
    "headline": "Tornado Warning issued September 21 at 2:31AM CDT until September 21 at 3:15AM CDT by NWS Norman OK",
    "description": "TOROUN\n\nThe National Weather Service in Norman has issued a\n\n* Tornado Warning for...\n  Northeastern Cleveland County in central Oklahoma...\n\n* Until 315 AM CDT.\n\n* At 231 AM CDT, a severe thunderstorm capable of producing a tornado was located near Noble, moving northeast at 35 mph.",
    "instruction": "TAKE COVER NOW! Move to a basement or an interior room on the lowest floor of a sturdy building.",
    "response": "Shelter",
    "parameters": {
     "AWIPSidentifier": [
      "TOROUN"
     ],
     "WMOidentifier": [
      "WGUS54 KEWX 210745"
     ]
    }
   }
  },
  {
   "id": "https://api.weather.gov/alerts/urn:oid:2.49.0.1.840.0.aa3c4d5e6f7a8b9c0d1e2f3a4b5c6d7e8f9a0b1c.001.1",
   "type": "Feature",
   "geometry": {
    "type": "Polygon",
    "coordinates": [
     [
      [
       -97.6,
       37.55
      ],
      [
       -97.15,
       37.58
      ],
      [
       -97.12,
       37.85
      ],
      [
       -97.58,
       37.83
      ],
      [
       -97.6,
       37.55
      ]
     ]
    ]
   },
   "properties": {
    "@id": "https://api.weather.gov/alerts/urn:oid:2.49.0.1.840.0.aa3c4d5e6f7a8b9c0d1e2f3a4b5c6d7e8f9a0b1c.001.1",
    "@type": "wx:Alert",
    "id": "urn:oid:2.49.0.1.840.0.aa3c4d5e6f7a8b9c0d1e2f3a4b5c6d7e8f9a0b1c.001.1",
    "areaDesc": "Sedgwick, KS",
    "geocode": {
     "SAME": [
      "020173"
     ],
     "UGC": [
      "KSC173"
     ]
    },
    "affectedZones": [
     "https://api.weather.gov/zones/county/KSC173"
    ],
    "references": [
     {
      "@id": "https://api.weather.gov/alerts/urn:oid:2.49.0.1.840.0.0000000000000000000000000000000000000001.001.1",
      "identifier": "urn:oid:2.49.0.1.840.0.0000000000000000000000000000000000000001.001.1",
      "sender": "w-nws.webmaster@noaa.gov",
      "sent": "2026-09-21T02:20:00-05:00"
     }
    ],
    "sent": "2026-09-18T02:50:00-05:00",
    "effective": "2026-09-18T02:50:00-05:00",
    "onset": "2026-09-18T02:50:00-05:00",
    "expires": "2026-09-23T03:30:00-05:00",
    "ends": "2026-09-23T03:30:00-05:00",
    "status": "Actual",
    "messageType": "Update",
    "category": "Met",
    "severity": "Severe",
    "certainty": "Observed",
    "urgency": "Immediate",
    "event": "Severe Thunderstorm Warning",
    "sender": "w-nws.webmaster@noaa.gov",
    "senderName": "NWS Wichita KS",
    "headline": "Severe Thunderstorm Warning issued September 21 at 2:50AM CDT until September 21 at 3:30AM CDT by NWS Wichita KS",
    "description": "SVSICT\n\nAt 250 AM CDT, a severe thunderstorm was located over Wichita, moving east at 40 mph.\n\nHAZARD...60 mph wind gusts and quarter size hail.",
    "instruction": null,
    "response": "Shelter",
    "parameters": {
     "AWIPSidentifier": [
      "SVSICT"
     ],
     "WMOidentifier": [
      "WGUS54 KEWX 210745"
     ]
    }
   }
  },
  {
   "id": "https://api.weather.gov/alerts/urn:oid:2.49.0.1.840.0.aa4d5e6f7a8b9c0d1e2f3a4b5c6d7e8f9a0b1c2d.001.1",
   "type": "Feature",
   "geometry": {
    "type": "Polygon",
    "coordinates": [
     [
      [
       -97.35,
       27.3
      ],
      [
       -96.95,
       27.35
      ],
      [
       -96.9,
       27.85
      ],
      [
       -97.3,
       27.8
      ],
      [
       -97.35,
       27.3
      ]
     ]
    ]
   },
   "properties": {
    "@id": "https://api.weather.gov/alerts/urn:oid:2.49.0.1.840.0.aa4d5e6f7a8b9c0d1e2f3a4b5c6d7e8f9a0b1c2d.001.1",
    "@type": "wx:Alert",
    "id": "urn:oid:2.49.0.1.840.0.aa4d5e6f7a8b9c0d1e2f3a4b5c6d7e8f9a0b1c2d.001.1",
    "areaDesc": "Coastal waters from Baffin Bay to Port Aransas out 20 NM",
    "geocode": {
     "SAME": [],
     "UGC": [
      "GMZ150"
     ]
    },
    "affectedZones": [
     "https://api.weather.gov/zones/forecast/GMZ150"
    ],
    "references": [],
    "sent": "2026-09-18T02:10:00-05:00",
    "effective": "2026-09-18T02:10:00-05:00",
    "onset": "2026-09-18T02:10:00-05:00",
    "expires": "2026-09-23T04:00:00-05:00",
    "ends": "2026-09-23T04:00:00-05:00",
    "status": "Actual",
    "messageType": "Alert",
    "category": "Met",
    "severity": "Moderate",
    "certainty": "Observed",
    "urgency": "Immediate",
    "event": "Special Marine Warning",
    "sender": "w-nws.webmaster@noaa.gov",
    "senderName": "NWS Corpus Christi TX",
    "headline": "Special Marine Warning issued September 21 at 2:10AM CDT until September 21 at 4:00AM CDT by NWS Corpus Christi TX",
    "description": "SMWCRP\n\nThe National Weather Service in Corpus Christi has issued a\n\n* Special Marine Warning for...\n  Coastal waters from Baffin Bay to Port Aransas out 20 NM...",
    "instruction": null,
    "response": "Avoid",
    "parameters": {
     "AWIPSidentifier": [
      "SMWCRP"
     ],
     "WMOidentifier": [
      "WGUS54 KEWX 210745"
     ]
    }
   }
  }
 ],
 "title": "Current watches, warnings, and advisories",
 "updated": "2026-09-21T07:58:12+00:00"
}
