ISS (ZARYA)             
1 25544U 98067A   26264.13372828  .00016717  00000+0  10270-3 0  9998
2 25544  51.6416 247.4627 0006703 130.5360 325.0288 15.49812345563533
CSS (TIANHE)            
1 48274U 21035A   26264.11401042  .00021001  00000+0  21000-3 0  9998
2 48274  41.4712  12.3456 0004521  88.1234 272.0012 15.61234567304567
HST                     
1 20580U 90037B   26263.92015046  .00001234  00000+0  45000-4 0  9992
2 20580  28.4699 301.2345 0002612 200.5678 159.4321 15.11223344681233
NOAA 20 (JPSS-1)        
1 43013U 17073A   26264.06250000  .00000123  00000+0  32100-4 0  9997
2 43013  98.7112 200.1112 0001987  90.4455 269.6789 14.19556677456788
LANDSAT 9               
1 49260U 21088A   26264.17430554  .00000111  00000+0  21000-4 0  9998
2 49260  98.2100 330.9876 0001234  95.1230 264.9990 14.57123456265436
NAVSTAR 78 (USA 293)    
1 44506U 19009A   26263.75000000 -.00000001  00000+0  00000-0 0  9990
2 44506  55.1234 160.5555 0012345 210.9876 148.7654  2.00561234 54328
GOES 16                 
1 41866U 16071A   26263.50000000 -.00000021  00000+0  00000-0 0  9997
2 41866   0.0456 270.1234 0001111 120.4567 240.1234  1.00271234 35789
STARLINK-30001          
1 57001U 23100A   26264.20975694  .00012345  00000+0  34000-3 0  9995
2 57001  43.0021  45.6789 0001456  78.9012 281.2345 15.06123456123450
STARLINK-30002          
1 57002U 23100B   26264.20975694  .00012345  00000+0  34000-3 0  9996
2 57002  43.0021  45.6789 0001456  78.9012 291.2345 15.06123456123452
SENTINEL-2A             
1 40697U 15028A   26264.01094039  .00000050  00000+0  10000-4 0  9997
2 40697  98.5680 340.1000 0001010  89.0000 271.1300 14.30818182587652
METEOR-M 2              
1 40069U 14037A   26263.84745370  .00000333  00000+0  56000-4 0  9994
2 40069  98.4321 100.2000 0018765 150.6000 209.5000 14.20654321632106
AQUA                    
1 27424U 02022A   26264.29097222  .00000090  00000+0  19000-4 0  9990
2 27424  98.2222 210.4444 0000987  60.1111 300.0333 14.57987654999992
